<?xml version='1.0' encoding='utf-8'?>
<gpx xmlns="http://www.topografix.com/GPX/1/1" version="1.1" creator="VitaBandet">
  <metadata>
    <name>Via Undersåker (124 km)</name>
    <desc>Helags to join via Undersåker (Erik Hägglund).</desc>
  </metadata>
  <wpt lat="62.91299000" lon="12.50853000">
    <name>Helags</name>
  </wpt>
  <wpt lat="63.67957500" lon="13.30911500">
    <name>Join</name>
  </wpt>
  <trk>
    <name>Via Undersåker (124 km)</name>
    <trkseg>
      <trkpt lat="62.90975000" lon="12.52626000" />
      <trkpt lat="62.91205000" lon="12.53698000" />
      <trkpt lat="62.91174000" lon="12.54025000" />
      <trkpt lat="62.91106000" lon="12.54529000" />
      <trkpt lat="62.91032000" lon="12.55707000" />
      <trkpt lat="62.91051000" lon="12.56702000" />
      <trkpt lat="62.91064000" lon="12.57657000" />
      <trkpt lat="62.91367000" lon="12.58838000" />
      <trkpt lat="62.91620000" lon="12.59799000" />
      <trkpt lat="62.91856000" lon="12.61067000" />
      <trkpt lat="62.92080000" lon="12.61567000" />
      <trkpt lat="62.92275000" lon="12.62065000" />
      <trkpt lat="62.92633000" lon="12.62945000" />
      <trkpt lat="62.93114000" lon="12.63494000" />
      <trkpt lat="62.93536000" lon="12.63970000" />
      <trkpt lat="62.93990000" lon="12.64140000" />
      <trkpt lat="62.94446000" lon="12.64198000" />
      <trkpt lat="62.95018000" lon="12.64000000" />
      <trkpt lat="62.95422000" lon="12.64080000" />
      <trkpt lat="62.95813000" lon="12.64543000" />
      <trkpt lat="62.96187000" lon="12.64981000" />
      <trkpt lat="62.96700000" lon="12.65247000" />
      <trkpt lat="62.97277000" lon="12.65554000" />
      <trkpt lat="62.97605000" lon="12.65683000" />
      <trkpt lat="62.97607000" lon="12.65685000" />
      <trkpt lat="62.97568000" lon="12.65721000" />
      <trkpt lat="62.97571000" lon="12.65689000" />
      <trkpt lat="62.97886000" lon="12.66434000" />
      <trkpt lat="62.98127000" lon="12.67043000" />
      <trkpt lat="62.98320000" lon="12.67515000" />
      <trkpt lat="62.98490000" lon="12.67946000" />
      <trkpt lat="62.98655000" lon="12.68367000" />
      <trkpt lat="62.98798000" lon="12.68727000" />
      <trkpt lat="62.98878000" lon="12.68961000" />
      <trkpt lat="62.99092000" lon="12.69719000" />
      <trkpt lat="62.99263000" lon="12.70699000" />
      <trkpt lat="62.99430000" lon="12.71691000" />
      <trkpt lat="62.99623000" lon="12.72894000" />
      <trkpt lat="62.99900000" lon="12.73766000" />
      <trkpt lat="63.00227000" lon="12.74259000" />
      <trkpt lat="63.00862000" lon="12.74982000" />
      <trkpt lat="63.01381000" lon="12.75594000" />
      <trkpt lat="63.02019000" lon="12.76429000" />
      <trkpt lat="63.02218000" lon="12.76439000" />
      <trkpt lat="63.02736000" lon="12.76875000" />
      <trkpt lat="63.03147000" lon="12.77555000" />
      <trkpt lat="63.03442000" lon="12.78499000" />
      <trkpt lat="63.03723000" lon="12.79254000" />
      <trkpt lat="63.04035000" lon="12.79690000" />
      <trkpt lat="63.04093000" lon="12.80008000" />
      <trkpt lat="63.04097000" lon="12.80018000" />
      <trkpt lat="63.04095000" lon="12.79978000" />
      <trkpt lat="63.04097000" lon="12.79984000" />
      <trkpt lat="63.04175000" lon="12.79830000" />
      <trkpt lat="63.04588000" lon="12.79426000" />
      <trkpt lat="63.05211000" lon="12.79379000" />
      <trkpt lat="63.05805000" lon="12.79596000" />
      <trkpt lat="63.06285000" lon="12.79883000" />
      <trkpt lat="63.06785000" lon="12.80598000" />
      <trkpt lat="63.07339000" lon="12.81181000" />
      <trkpt lat="63.07655000" lon="12.81495000" />
      <trkpt lat="63.07950000" lon="12.81954000" />
      <trkpt lat="63.08418000" lon="12.81984000" />
      <trkpt lat="63.08711000" lon="12.81954000" />
      <trkpt lat="63.09109000" lon="12.81623000" />
      <trkpt lat="63.09482000" lon="12.81147000" />
      <trkpt lat="63.10126000" lon="12.81344000" />
      <trkpt lat="63.10813000" lon="12.81808000" />
      <trkpt lat="63.11191000" lon="12.82595000" />
      <trkpt lat="63.11203000" lon="12.83628000" />
      <trkpt lat="63.11545000" lon="12.84357000" />
      <trkpt lat="63.11663000" lon="12.85619000" />
      <trkpt lat="63.11957000" lon="12.86325000" />
      <trkpt lat="63.12411000" lon="12.86636000" />
      <trkpt lat="63.12857000" lon="12.87196000" />
      <trkpt lat="63.13339000" lon="12.87670000" />
      <trkpt lat="63.13395000" lon="12.88681000" />
      <trkpt lat="63.13642000" lon="12.89567000" />
      <trkpt lat="63.14020000" lon="12.90213000" />
      <trkpt lat="63.14603000" lon="12.90606000" />
      <trkpt lat="63.14892000" lon="12.91696000" />
      <trkpt lat="63.14883000" lon="12.92749000" />
      <trkpt lat="63.14931000" lon="12.93676000" />
      <trkpt lat="63.14804000" lon="12.94796000" />
      <trkpt lat="63.14804000" lon="12.96017000" />
      <trkpt lat="63.14882000" lon="12.96635000" />
      <trkpt lat="63.14896000" lon="12.96635000" />
      <trkpt lat="63.14911000" lon="12.97054000" />
      <trkpt lat="63.14959000" lon="12.98039000" />
      <trkpt lat="63.15187000" lon="12.98981000" />
      <trkpt lat="63.15366000" lon="13.00232000" />
      <trkpt lat="63.15506000" lon="13.01367000" />
      <trkpt lat="63.15673000" lon="13.02538000" />
      <trkpt lat="63.15735000" lon="13.03339000" />
      <trkpt lat="63.16036000" lon="13.04472000" />
      <trkpt lat="63.16368000" lon="13.05467000" />
      <trkpt lat="63.16677000" lon="13.05999000" />
      <trkpt lat="63.16704000" lon="13.06107000" />
      <trkpt lat="63.17106000" lon="13.06126000" />
      <trkpt lat="63.17602000" lon="13.06107000" />
      <trkpt lat="63.18017000" lon="13.06360000" />
      <trkpt lat="63.18713000" lon="13.06186000" />
      <trkpt lat="63.18928000" lon="13.05926000" />
      <trkpt lat="63.18698000" lon="13.06197000" />
      <trkpt lat="63.19147000" lon="13.05688000" />
      <trkpt lat="63.19746000" lon="13.05373000" />
      <trkpt lat="63.20339000" lon="13.05259000" />
      <trkpt lat="63.20667000" lon="13.05583000" />
      <trkpt lat="63.20580000" lon="13.06390000" />
      <trkpt lat="63.20460000" lon="13.07720000" />
      <trkpt lat="63.20363000" lon="13.08853000" />
      <trkpt lat="63.20257000" lon="13.09975000" />
      <trkpt lat="63.20294000" lon="13.11128000" />
      <trkpt lat="63.20420000" lon="13.12357000" />
      <trkpt lat="63.20534000" lon="13.13640000" />
      <trkpt lat="63.20605000" lon="13.14904000" />
      <trkpt lat="63.20618000" lon="13.15679000" />
      <trkpt lat="63.20594000" lon="13.16338000" />
      <trkpt lat="63.20941000" lon="13.17095000" />
      <trkpt lat="63.21443000" lon="13.17065000" />
      <trkpt lat="63.21999000" lon="13.17011000" />
      <trkpt lat="63.22341000" lon="13.18018000" />
      <trkpt lat="63.23990000" lon="13.26227000" />
      <trkpt lat="63.23990000" lon="13.26227000" />
      <trkpt lat="63.23988000" lon="13.26221000" />
      <trkpt lat="63.24127000" lon="13.25670000" />
      <trkpt lat="63.24475000" lon="13.25878000" />
      <trkpt lat="63.24856000" lon="13.26047000" />
      <trkpt lat="63.25128000" lon="13.26335000" />
      <trkpt lat="63.25375000" lon="13.26603000" />
      <trkpt lat="63.25899000" lon="13.27054000" />
      <trkpt lat="63.26509000" lon="13.27122000" />
      <trkpt lat="63.27197000" lon="13.27281000" />
      <trkpt lat="63.27811000" lon="13.27418000" />
      <trkpt lat="63.28302000" lon="13.27841000" />
      <trkpt lat="63.28766000" lon="13.27504000" />
      <trkpt lat="63.29659000" lon="13.27470000" />
      <trkpt lat="63.30381000" lon="13.27657000" />
      <trkpt lat="63.30586000" lon="13.26661000" />
      <trkpt lat="63.30813000" lon="13.25285000" />
      <trkpt lat="63.31254000" lon="13.24706000" />
      <trkpt lat="63.31370000" lon="13.23623000" />
      <trkpt lat="63.31611000" lon="13.23608000" />
      <trkpt lat="63.31634000" lon="13.23668000" />
      <trkpt lat="63.31620000" lon="13.23668000" />
      <trkpt lat="63.31616000" lon="13.23674000" />
      <trkpt lat="63.31647000" lon="13.23640000" />
      <trkpt lat="63.31828000" lon="13.23895000" />
      <trkpt lat="63.32175000" lon="13.24047000" />
      <trkpt lat="63.32556000" lon="13.24298000" />
      <trkpt lat="63.33077000" lon="13.24901000" />
      <trkpt lat="63.33123000" lon="13.26024000" />
      <trkpt lat="63.33529000" lon="13.26307000" />
      <trkpt lat="63.34096000" lon="13.26987000" />
      <trkpt lat="63.34604000" lon="13.27498000" />
      <trkpt lat="63.34948000" lon="13.27603000" />
      <trkpt lat="63.35383000" lon="13.26697000" />
      <trkpt lat="63.35794000" lon="13.25755000" />
      <trkpt lat="63.36105000" lon="13.24543000" />
      <trkpt lat="63.36366000" lon="13.23837000" />
      <trkpt lat="63.36943000" lon="13.23120000" />
      <trkpt lat="63.37472000" lon="13.22316000" />
      <trkpt lat="63.37840000" lon="13.22026000" />
      <trkpt lat="63.38210000" lon="13.21638000" />
      <trkpt lat="63.38579000" lon="13.21464000" />
      <trkpt lat="63.38971000" lon="13.20977000" />
      <trkpt lat="63.39283000" lon="13.20086000" />
      <trkpt lat="63.39711000" lon="13.19535000" />
      <trkpt lat="63.39991000" lon="13.19803000" />
      <trkpt lat="63.40256000" lon="13.20756000" />
      <trkpt lat="63.40427000" lon="13.21000000" />
      <trkpt lat="63.40583000" lon="13.21661000" />
      <trkpt lat="63.40878000" lon="13.22318000" />
      <trkpt lat="63.41100000" lon="13.22580000" />
      <trkpt lat="63.41698000" lon="13.22513000" />
      <trkpt lat="63.42610000" lon="13.22764000" />
      <trkpt lat="63.43311000" lon="13.22208000" />
      <trkpt lat="63.43921000" lon="13.21756000" />
      <trkpt lat="63.44184000" lon="13.22517000" />
      <trkpt lat="63.44674000" lon="13.22522000" />
      <trkpt lat="63.44959000" lon="13.21505000" />
      <trkpt lat="63.45194000" lon="13.20771000" />
      <trkpt lat="63.45517000" lon="13.20803000" />
      <trkpt lat="63.46119000" lon="13.21337000" />
      <trkpt lat="63.46683000" lon="13.21857000" />
      <trkpt lat="63.47081000" lon="13.22547000" />
      <trkpt lat="63.47370000" lon="13.22921000" />
      <trkpt lat="63.47442000" lon="13.23386000" />
      <trkpt lat="63.47442000" lon="13.23386000" />
      <trkpt lat="63.47447000" lon="13.23376000" />
      <trkpt lat="63.47467000" lon="13.23348000" />
      <trkpt lat="63.47667000" lon="13.23846000" />
      <trkpt lat="63.48003000" lon="13.24408000" />
      <trkpt lat="63.48573000" lon="13.24637000" />
      <trkpt lat="63.49038000" lon="13.24642000" />
      <trkpt lat="63.49430000" lon="13.24803000" />
      <trkpt lat="63.49925000" lon="13.24816000" />
      <trkpt lat="63.50445000" lon="13.24702000" />
      <trkpt lat="63.50976000" lon="13.24659000" />
      <trkpt lat="63.51433000" lon="13.25077000" />
      <trkpt lat="63.51821000" lon="13.25363000" />
      <trkpt lat="63.52083000" lon="13.25564000" />
      <trkpt lat="63.52312000" lon="13.25946000" />
      <trkpt lat="63.52855000" lon="13.25925000" />
      <trkpt lat="63.53324000" lon="13.26341000" />
      <trkpt lat="63.53632000" lon="13.26225000" />
      <trkpt lat="63.53926000" lon="13.26318000" />
      <trkpt lat="63.54374000" lon="13.26410000" />
      <trkpt lat="63.54894000" lon="13.26429000" />
      <trkpt lat="63.55020000" lon="13.25783000" />
      <trkpt lat="63.55351000" lon="13.25440000" />
      <trkpt lat="63.55876000" lon="13.25146000" />
      <trkpt lat="63.56098000" lon="13.25408000" />
      <trkpt lat="63.56595000" lon="13.24994000" />
      <trkpt lat="63.56853000" lon="13.24307000" />
      <trkpt lat="63.57141000" lon="13.23794000" />
      <trkpt lat="63.57485000" lon="13.22882000" />
      <trkpt lat="63.57831000" lon="13.22460000" />
      <trkpt lat="63.58018000" lon="13.21453000" />
      <trkpt lat="63.58491000" lon="13.20138000" />
      <trkpt lat="63.58902000" lon="13.19226000" />
      <trkpt lat="63.59282000" lon="13.18702000" />
      <trkpt lat="63.59864000" lon="13.17732000" />
      <trkpt lat="63.60161000" lon="13.18183000" />
      <trkpt lat="63.60657000" lon="13.19696000" />
      <trkpt lat="63.61168000" lon="13.20803000" />
      <trkpt lat="63.61566000" lon="13.20985000" />
      <trkpt lat="63.61876000" lon="13.20910000" />
      <trkpt lat="63.62093000" lon="13.21361000" />
      <trkpt lat="63.62447000" lon="13.21824000" />
      <trkpt lat="63.62818000" lon="13.22230000" />
      <trkpt lat="63.63139000" lon="13.22348000" />
      <trkpt lat="63.63164000" lon="13.22384000" />
      <trkpt lat="63.63167000" lon="13.22387000" />
      <trkpt lat="63.63166000" lon="13.22382000" />
      <trkpt lat="63.63535000" lon="13.22880000" />
      <trkpt lat="63.63810000" lon="13.23436000" />
      <trkpt lat="63.63975000" lon="13.24425000" />
      <trkpt lat="63.63940000" lon="13.25507000" />
      <trkpt lat="63.64163000" lon="13.27039000" />
      <trkpt lat="63.64037000" lon="13.28886000" />
      <trkpt lat="63.64367000" lon="13.28903000" />
      <trkpt lat="63.64893000" lon="13.28687000" />
      <trkpt lat="63.65404000" lon="13.28571000" />
      <trkpt lat="63.65964000" lon="13.29026000" />
      <trkpt lat="63.66420000" lon="13.28933000" />
      <trkpt lat="63.66793000" lon="13.29742000" />
      <trkpt lat="63.66964000" lon="13.30671000" />
      <trkpt lat="63.67305000" lon="13.31154000" />
    </trkseg>
  </trk>
</gpx>