<?xml version='1.0' encoding='utf-8'?>
<gpx xmlns="http://www.topografix.com/GPX/1/1" version="1.1" creator="VitaBandet">
  <metadata>
    <name>Via Storlien (161 km)</name>
    <desc>Helags to join via Storlien (Lotta &amp; Björn).</desc>
  </metadata>
  <wpt lat="62.91299000" lon="12.50853000">
    <name>Helags</name>
  </wpt>
  <wpt lat="63.31548000" lon="12.10590000">
    <name>Storlien</name>
  </wpt>
  <wpt lat="63.67957500" lon="13.30911500">
    <name>Join</name>
  </wpt>
  <trk>
    <name>Via Storlien (161 km)</name>
    <trkseg>
      <trkpt lat="62.91699000" lon="12.50598000" />
      <trkpt lat="62.91699000" lon="12.50598000" />
      <trkpt lat="62.91696000" lon="12.50576000" />
      <trkpt lat="62.92130000" lon="12.49407000" />
      <trkpt lat="62.92902000" lon="12.48334000" />
      <trkpt lat="62.93600000" lon="12.47637000" />
      <trkpt lat="62.94259000" lon="12.46620000" />
      <trkpt lat="62.94777000" lon="12.45663000" />
      <trkpt lat="62.95123000" lon="12.44452000" />
      <trkpt lat="62.95422000" lon="12.43161000" />
      <trkpt lat="62.95685000" lon="12.41811000" />
      <trkpt lat="62.95922000" lon="12.40435000" />
      <trkpt lat="62.96293000" lon="12.39184000" />
      <trkpt lat="62.96645000" lon="12.38034000" />
      <trkpt lat="62.97121000" lon="12.36966000" />
      <trkpt lat="62.97790000" lon="12.36526000" />
      <trkpt lat="62.98371000" lon="12.36183000" />
      <trkpt lat="62.98379000" lon="12.36193000" />
      <trkpt lat="62.98707000" lon="12.35642000" />
      <trkpt lat="62.99415000" lon="12.35208000" />
      <trkpt lat="62.99802000" lon="12.34655000" />
      <trkpt lat="63.00306000" lon="12.34150000" />
      <trkpt lat="63.00799000" lon="12.33597000" />
      <trkpt lat="63.01193000" lon="12.32839000" />
      <trkpt lat="63.01452000" lon="12.31957000" />
      <trkpt lat="63.01841000" lon="12.31003000" />
      <trkpt lat="63.02266000" lon="12.30089000" />
      <trkpt lat="63.02564000" lon="12.29202000" />
      <trkpt lat="63.02719000" lon="12.28546000" />
      <trkpt lat="63.02812000" lon="12.27619000" />
      <trkpt lat="63.02815000" lon="12.26602000" />
      <trkpt lat="63.03368000" lon="12.26415000" />
      <trkpt lat="63.04060000" lon="12.27200000" />
      <trkpt lat="63.04245000" lon="12.27411000" />
      <trkpt lat="63.04309000" lon="12.27501000" />
      <trkpt lat="63.05565000" lon="12.27945000" />
      <trkpt lat="63.06423000" lon="12.27758000" />
      <trkpt lat="63.07212000" lon="12.28383000" />
      <trkpt lat="63.07738000" lon="12.27848000" />
      <trkpt lat="63.08029000" lon="12.27449000" />
      <trkpt lat="63.08404000" lon="12.26893000" />
      <trkpt lat="63.08723000" lon="12.26778000" />
      <trkpt lat="63.09306000" lon="12.26713000" />
      <trkpt lat="63.09898000" lon="12.26653000" />
      <trkpt lat="63.10651000" lon="12.25679000" />
      <trkpt lat="63.11486000" lon="12.25097000" />
      <trkpt lat="63.12139000" lon="12.24278000" />
      <trkpt lat="63.12208000" lon="12.24209000" />
      <trkpt lat="63.12301000" lon="12.24042000" />
      <trkpt lat="63.12912000" lon="12.23190000" />
      <trkpt lat="63.13583000" lon="12.22216000" />
      <trkpt lat="63.14329000" lon="12.21327000" />
      <trkpt lat="63.14782000" lon="12.20907000" />
      <trkpt lat="63.15250000" lon="12.20244000" />
      <trkpt lat="63.15739000" lon="12.19596000" />
      <trkpt lat="63.16157000" lon="12.19149000" />
      <trkpt lat="63.16532000" lon="12.18928000" />
      <trkpt lat="63.16903000" lon="12.18890000" />
      <trkpt lat="63.17391000" lon="12.18551000" />
      <trkpt lat="63.17933000" lon="12.17937000" />
      <trkpt lat="63.18375000" lon="12.17525000" />
      <trkpt lat="63.18550000" lon="12.17418000" />
      <trkpt lat="63.18548000" lon="12.17424000" />
      <trkpt lat="63.18548000" lon="12.17413000" />
      <trkpt lat="63.18979000" lon="12.17280000" />
      <trkpt lat="63.19826000" lon="12.16658000" />
      <trkpt lat="63.19965000" lon="12.16424000" />
      <trkpt lat="63.20596000" lon="12.16377000" />
      <trkpt lat="63.21016000" lon="12.16186000" />
      <trkpt lat="63.21510000" lon="12.16008000" />
      <trkpt lat="63.22386000" lon="12.15965000" />
      <trkpt lat="63.23187000" lon="12.15920000" />
      <trkpt lat="63.23261000" lon="12.16055000" />
      <trkpt lat="63.23270000" lon="12.16047000" />
      <trkpt lat="63.23337000" lon="12.15401000" />
      <trkpt lat="63.23662000" lon="12.14519000" />
      <trkpt lat="63.23890000" lon="12.14294000" />
      <trkpt lat="63.24236000" lon="12.13789000" />
      <trkpt lat="63.24557000" lon="12.13242000" />
      <trkpt lat="63.25351000" lon="12.12624000" />
      <trkpt lat="63.26167000" lon="12.12186000" />
      <trkpt lat="63.26820000" lon="12.12277000" />
      <trkpt lat="63.27162000" lon="12.12337000" />
      <trkpt lat="63.27161000" lon="12.12287000" />
      <trkpt lat="63.27362000" lon="12.12352000" />
      <trkpt lat="63.27769000" lon="12.11429000" />
      <trkpt lat="63.28464000" lon="12.11695000" />
      <trkpt lat="63.28646000" lon="12.10955000" />
      <trkpt lat="63.28770000" lon="12.09925000" />
      <trkpt lat="63.29368000" lon="12.09764000" />
      <trkpt lat="63.29926000" lon="12.09262000" />
      <trkpt lat="63.30237000" lon="12.09596000" />
      <trkpt lat="63.30246000" lon="12.10513000" />
      <trkpt lat="63.29961000" lon="12.11392000" />
      <trkpt lat="63.30439000" lon="12.11341000" />
      <trkpt lat="63.30965000" lon="12.11571000" />
      <trkpt lat="63.31411000" lon="12.10950000" />
      <trkpt lat="63.31548000" lon="12.10590000" />
      <trkpt lat="63.31648000" lon="12.10774000" />
      <trkpt lat="63.32195000" lon="12.11294000" />
      <trkpt lat="63.32963000" lon="12.11753000" />
      <trkpt lat="63.33550000" lon="12.12377000" />
      <trkpt lat="63.34313000" lon="12.13446000" />
      <trkpt lat="63.34963000" lon="12.14317000" />
      <trkpt lat="63.35008000" lon="12.14382000" />
      <trkpt lat="63.35039000" lon="12.14774000" />
      <trkpt lat="63.35516000" lon="12.17004000" />
      <trkpt lat="63.35757000" lon="12.18862000" />
      <trkpt lat="63.35638000" lon="12.20302000" />
      <trkpt lat="63.35284000" lon="12.22565000" />
      <trkpt lat="63.35442000" lon="12.24707000" />
      <trkpt lat="63.35691000" lon="12.27565000" />
      <trkpt lat="63.36343000" lon="12.28127000" />
      <trkpt lat="63.36997000" lon="12.27587000" />
      <trkpt lat="63.37017000" lon="12.27629000" />
      <trkpt lat="63.37014000" lon="12.27634000" />
      <trkpt lat="63.37020000" lon="12.27638000" />
      <trkpt lat="63.37723000" lon="12.27709000" />
      <trkpt lat="63.38475000" lon="12.27003000" />
      <trkpt lat="63.39085000" lon="12.26024000" />
      <trkpt lat="63.39685000" lon="12.24945000" />
      <trkpt lat="63.40283000" lon="12.23862000" />
      <trkpt lat="63.40975000" lon="12.23220000" />
      <trkpt lat="63.41601000" lon="12.22658000" />
      <trkpt lat="63.42127000" lon="12.22089000" />
      <trkpt lat="63.42574000" lon="12.21578000" />
      <trkpt lat="63.42773000" lon="12.21797000" />
      <trkpt lat="63.43041000" lon="12.22111000" />
      <trkpt lat="63.43181000" lon="12.22443000" />
      <trkpt lat="63.43563000" lon="12.23615000" />
      <trkpt lat="63.44216000" lon="12.23915000" />
      <trkpt lat="63.44896000" lon="12.24048000" />
      <trkpt lat="63.45712000" lon="12.24140000" />
      <trkpt lat="63.46364000" lon="12.24211000" />
      <trkpt lat="63.46981000" lon="12.24383000" />
      <trkpt lat="63.47885000" lon="12.24909000" />
      <trkpt lat="63.48639000" lon="12.24939000" />
      <trkpt lat="63.49265000" lon="12.24437000" />
      <trkpt lat="63.49930000" lon="12.23761000" />
      <trkpt lat="63.50619000" lon="12.23583000" />
      <trkpt lat="63.50806000" lon="12.23615000" />
      <trkpt lat="63.50803000" lon="12.23617000" />
      <trkpt lat="63.50995000" lon="12.23799000" />
      <trkpt lat="63.51766000" lon="12.24192000" />
      <trkpt lat="63.52557000" lon="12.24587000" />
      <trkpt lat="63.53048000" lon="12.24829000" />
      <trkpt lat="63.53786000" lon="12.25694000" />
      <trkpt lat="63.54689000" lon="12.26097000" />
      <trkpt lat="63.55299000" lon="12.26338000" />
      <trkpt lat="63.55859000" lon="12.26767000" />
      <trkpt lat="63.56441000" lon="12.26863000" />
      <trkpt lat="63.56997000" lon="12.26567000" />
      <trkpt lat="63.57649000" lon="12.26930000" />
      <trkpt lat="63.57652000" lon="12.26941000" />
      <trkpt lat="63.57745000" lon="12.27108000" />
      <trkpt lat="63.58387000" lon="12.27200000" />
      <trkpt lat="63.58884000" lon="12.27745000" />
      <trkpt lat="63.59002000" lon="12.29192000" />
      <trkpt lat="63.59186000" lon="12.30966000" />
      <trkpt lat="63.59447000" lon="12.32277000" />
      <trkpt lat="63.59828000" lon="12.33256000" />
      <trkpt lat="63.60150000" lon="12.34015000" />
      <trkpt lat="63.60306000" lon="12.35524000" />
      <trkpt lat="63.60541000" lon="12.37170000" />
      <trkpt lat="63.60537000" lon="12.37172000" />
      <trkpt lat="63.60539000" lon="12.37172000" />
      <trkpt lat="63.60546000" lon="12.37174000" />
      <trkpt lat="63.60592000" lon="12.37809000" />
      <trkpt lat="63.60795000" lon="12.38970000" />
      <trkpt lat="63.61514000" lon="12.39957000" />
      <trkpt lat="63.61939000" lon="12.41888000" />
      <trkpt lat="63.62611000" lon="12.43375000" />
      <trkpt lat="63.62647000" lon="12.44476000" />
      <trkpt lat="63.62529000" lon="12.45761000" />
      <trkpt lat="63.62604000" lon="12.47070000" />
      <trkpt lat="63.62646000" lon="12.48310000" />
      <trkpt lat="63.62851000" lon="12.49881000" />
      <trkpt lat="63.63389000" lon="12.51076000" />
      <trkpt lat="63.63569000" lon="12.51261000" />
      <trkpt lat="63.63572000" lon="12.51267000" />
      <trkpt lat="63.63602000" lon="12.51456000" />
      <trkpt lat="63.64099000" lon="12.51741000" />
      <trkpt lat="63.64711000" lon="12.52070000" />
      <trkpt lat="63.65477000" lon="12.52473000" />
      <trkpt lat="63.66204000" lon="12.52909000" />
      <trkpt lat="63.66701000" lon="12.53246000" />
      <trkpt lat="63.67198000" lon="12.53866000" />
      <trkpt lat="63.67652000" lon="12.54570000" />
      <trkpt lat="63.68071000" lon="12.53686000" />
      <trkpt lat="63.68324000" lon="12.53503000" />
      <trkpt lat="63.68323000" lon="12.53507000" />
      <trkpt lat="63.68671000" lon="12.52877000" />
      <trkpt lat="63.69242000" lon="12.52454000" />
      <trkpt lat="63.69647000" lon="12.51967000" />
      <trkpt lat="63.70137000" lon="12.51516000" />
      <trkpt lat="63.70554000" lon="12.53340000" />
      <trkpt lat="63.70976000" lon="12.53879000" />
      <trkpt lat="63.70730000" lon="12.55769000" />
      <trkpt lat="63.70461000" lon="12.57567000" />
      <trkpt lat="63.70281000" lon="12.58799000" />
      <trkpt lat="63.70189000" lon="12.59661000" />
      <trkpt lat="63.70151000" lon="12.61389000" />
      <trkpt lat="63.70629000" lon="12.62563000" />
      <trkpt lat="63.70966000" lon="12.62809000" />
      <trkpt lat="63.71080000" lon="12.63032000" />
      <trkpt lat="63.71110000" lon="12.63035000" />
      <trkpt lat="63.71086000" lon="12.63037000" />
      <trkpt lat="63.71086000" lon="12.63037000" />
      <trkpt lat="63.71085000" lon="12.63048000" />
      <trkpt lat="63.70888000" lon="12.62496000" />
      <trkpt lat="63.70395000" lon="12.63773000" />
      <trkpt lat="63.70159000" lon="12.65672000" />
      <trkpt lat="63.70040000" lon="12.67217000" />
      <trkpt lat="63.69867000" lon="12.68116000" />
      <trkpt lat="63.69879000" lon="12.69515000" />
      <trkpt lat="63.69839000" lon="12.70659000" />
      <trkpt lat="63.69891000" lon="12.71457000" />
      <trkpt lat="63.69916000" lon="12.72401000" />
      <trkpt lat="63.70017000" lon="12.73030000" />
      <trkpt lat="63.70125000" lon="12.73742000" />
      <trkpt lat="63.70069000" lon="12.75369000" />
      <trkpt lat="63.70160000" lon="12.76366000" />
      <trkpt lat="63.70157000" lon="12.76875000" />
      <trkpt lat="63.70240000" lon="12.77607000" />
      <trkpt lat="63.70185000" lon="12.78405000" />
      <trkpt lat="63.70390000" lon="12.78879000" />
      <trkpt lat="63.70389000" lon="12.78890000" />
      <trkpt lat="63.70481000" lon="12.79070000" />
      <trkpt lat="63.70836000" lon="12.79750000" />
      <trkpt lat="63.71242000" lon="12.80368000" />
      <trkpt lat="63.71688000" lon="12.81602000" />
      <trkpt lat="63.72179000" lon="12.82763000" />
      <trkpt lat="63.72612000" lon="12.84192000" />
      <trkpt lat="63.72577000" lon="12.85372000" />
      <trkpt lat="63.72641000" lon="12.85722000" />
      <trkpt lat="63.72452000" lon="12.86883000" />
      <trkpt lat="63.72385000" lon="12.87602000" />
      <trkpt lat="63.72317000" lon="12.88619000" />
      <trkpt lat="63.71888000" lon="12.90065000" />
      <trkpt lat="63.71547000" lon="12.91136000" />
      <trkpt lat="63.71430000" lon="12.91857000" />
      <trkpt lat="63.71332000" lon="12.93041000" />
      <trkpt lat="63.71060000" lon="12.94496000" />
      <trkpt lat="63.70450000" lon="12.95013000" />
      <trkpt lat="63.70225000" lon="12.95054000" />
      <trkpt lat="63.70140000" lon="12.95710000" />
      <trkpt lat="63.70118000" lon="12.95783000" />
      <trkpt lat="63.70051000" lon="12.96086000" />
      <trkpt lat="63.69854000" lon="12.97131000" />
      <trkpt lat="63.70114000" lon="12.98131000" />
      <trkpt lat="63.70572000" lon="12.99380000" />
      <trkpt lat="63.70953000" lon="13.00659000" />
      <trkpt lat="63.71275000" lon="13.01856000" />
      <trkpt lat="63.71326000" lon="13.02285000" />
      <trkpt lat="63.71327000" lon="13.02285000" />
      <trkpt lat="63.71333000" lon="13.03658000" />
      <trkpt lat="63.71319000" lon="13.05257000" />
      <trkpt lat="63.71297000" lon="13.06849000" />
      <trkpt lat="63.71217000" lon="13.08109000" />
      <trkpt lat="63.71077000" lon="13.09192000" />
      <trkpt lat="63.71076000" lon="13.09209000" />
      <trkpt lat="63.71076000" lon="13.09212000" />
      <trkpt lat="63.71073000" lon="13.09190000" />
      <trkpt lat="63.70760000" lon="13.10319000" />
      <trkpt lat="63.70620000" lon="13.11928000" />
      <trkpt lat="63.70787000" lon="13.13636000" />
      <trkpt lat="63.70795000" lon="13.15271000" />
      <trkpt lat="63.70832000" lon="13.16885000" />
      <trkpt lat="63.70944000" lon="13.17151000" />
      <trkpt lat="63.71334000" lon="13.18428000" />
      <trkpt lat="63.71673000" lon="13.19756000" />
      <trkpt lat="63.71616000" lon="13.21069000" />
      <trkpt lat="63.71488000" lon="13.22490000" />
      <trkpt lat="63.70999000" lon="13.23552000" />
      <trkpt lat="63.70849000" lon="13.24015000" />
      <trkpt lat="63.70848000" lon="13.24015000" />
      <trkpt lat="63.70571000" lon="13.24700000" />
      <trkpt lat="63.70188000" lon="13.25929000" />
      <trkpt lat="63.69890000" lon="13.27212000" />
      <trkpt lat="63.69603000" lon="13.28431000" />
      <trkpt lat="63.69237000" lon="13.29678000" />
      <trkpt lat="63.68610000" lon="13.30669000" />
    </trkseg>
  </trk>
</gpx>