<?xml version="1.0" encoding="UTF-8"?>
<gpx version="1.1" creator="vitabandet-site" xmlns="http://www.topografix.com/GPX/1/1">
  <metadata>
    <name>Ritsem to Abisko</name>
    <desc>Kungsleden hut stretch, Vita Bandet 2027. Staffed STF nights including Hukejaure.</desc>
  </metadata>
  <wpt lat="67.72235546" lon="17.46912346">
    <name>Ritsem</name>
    <desc>30–31 Mar · rest · STF shop</desc>
    <sym>Flag, Blue</sym>
  </wpt>
  <wpt lat="67.85819560" lon="17.62632254">
    <name>Sitojaure</name>
    <desc>1 Apr · 22 km · STF hut</desc>
    <sym>Lodging</sym>
  </wpt>
  <wpt lat="67.93405007" lon="17.96728210">
    <name>Hukejaure</name>
    <desc>2 Apr · 19 km · STF hut · west of Nikkaluokta</desc>
    <sym>Lodging</sym>
  </wpt>
  <wpt lat="67.94637599" lon="18.28170103">
    <name>Sälka</name>
    <desc>3 Apr · 20 km · STF hut</desc>
    <sym>Lodging</sym>
  </wpt>
  <wpt lat="68.05388597" lon="18.24525476">
    <name>Tjäktja</name>
    <desc>4 Apr · 14 km · STF hut</desc>
    <sym>Lodging</sym>
  </wpt>
  <wpt lat="68.13585335" lon="18.41412839">
    <name>Alesjaure</name>
    <desc>5 Apr · 12 km · STF hut</desc>
    <sym>Lodging</sym>
  </wpt>
  <wpt lat="68.28653122" lon="18.59536903">
    <name>Abiskojaure</name>
    <desc>6 Apr · 22 km · STF hut</desc>
    <sym>Lodging</sym>
  </wpt>
  <wpt lat="68.36123016" lon="18.78535358">
    <name>Abisko</name>
    <desc>7–8 Apr · 13 km · rest · STF</desc>
    <sym>Flag, Blue</sym>
  </wpt>
  <trk>
    <name>Ritsem to Abisko</name>
    <trkseg>
      <trkpt lat="67.72233275" lon="17.46916009"/>
      <trkpt lat="67.72252260" lon="17.46781823"/>
      <trkpt lat="67.72280104" lon="17.46337951"/>
      <trkpt lat="67.72389723" lon="17.45963850"/>
      <trkpt lat="67.72513708" lon="17.46152032"/>
      <trkpt lat="67.72484874" lon="17.46623917"/>
      <trkpt lat="67.72527195" lon="17.47095709"/>
      <trkpt lat="67.72610527" lon="17.47529665"/>
      <trkpt lat="67.72789942" lon="17.47523320"/>
      <trkpt lat="67.72968661" lon="17.47365103"/>
      <trkpt lat="67.73140054" lon="17.47500873"/>
      <trkpt lat="67.73309352" lon="17.47674052"/>
      <trkpt lat="67.73470335" lon="17.47825203"/>
      <trkpt lat="67.73647629" lon="17.47764995"/>
      <trkpt lat="67.73822349" lon="17.47744904"/>
      <trkpt lat="67.73938271" lon="17.48075855"/>
      <trkpt lat="67.74093127" lon="17.48349541"/>
      <trkpt lat="67.74249391" lon="17.48595064"/>
      <trkpt lat="67.74408387" lon="17.48846931"/>
      <trkpt lat="67.74550494" lon="17.49072790"/>
      <trkpt lat="67.74719330" lon="17.49347867"/>
      <trkpt lat="67.74854422" lon="17.49665022"/>
      <trkpt lat="67.74878025" lon="17.50227213"/>
      <trkpt lat="67.74869442" lon="17.50703573"/>
      <trkpt lat="67.74920940" lon="17.50999689"/>
      <trkpt lat="67.75036812" lon="17.51381636"/>
      <trkpt lat="67.75238514" lon="17.51928806"/>
      <trkpt lat="67.75388718" lon="17.52456665"/>
      <trkpt lat="67.75487423" lon="17.53003836"/>
      <trkpt lat="67.75601149" lon="17.53441572"/>
      <trkpt lat="67.75918722" lon="17.54265547"/>
      <trkpt lat="67.76195526" lon="17.54982233"/>
      <trkpt lat="67.76369333" lon="17.55587339"/>
      <trkpt lat="67.76605368" lon="17.56349087"/>
      <trkpt lat="67.76787758" lon="17.57091522"/>
      <trkpt lat="67.76886463" lon="17.57520676"/>
      <trkpt lat="67.77068853" lon="17.58020639"/>
      <trkpt lat="67.77068853" lon="17.58020639"/>
      <trkpt lat="67.77362823" lon="17.58599997"/>
      <trkpt lat="67.77564526" lon="17.58986235"/>
      <trkpt lat="67.77736187" lon="17.59190083"/>
      <trkpt lat="67.77929306" lon="17.59312391"/>
      <trkpt lat="67.78115988" lon="17.59490490"/>
      <trkpt lat="67.78180361" lon="17.59636402"/>
      <trkpt lat="67.78345585" lon="17.60166407"/>
      <trkpt lat="67.78500080" lon="17.60411024"/>
      <trkpt lat="67.78701782" lon="17.60670662"/>
      <trkpt lat="67.78862715" lon="17.60872364"/>
      <trkpt lat="67.79006481" lon="17.61250019"/>
      <trkpt lat="67.79287577" lon="17.61612654"/>
      <trkpt lat="67.79572964" lon="17.61977434"/>
      <trkpt lat="67.79956578" lon="17.62471665"/>
      <trkpt lat="67.79727459" lon="17.62170553"/>
      <trkpt lat="67.80027866" lon="17.62565374"/>
      <trkpt lat="67.80321836" lon="17.62874365"/>
      <trkpt lat="67.81300306" lon="17.63616800"/>
      <trkpt lat="67.81614058" lon="17.63858048"/>
      <trkpt lat="67.81800270" lon="17.63925791"/>
      <trkpt lat="67.81864031" lon="17.64246424"/>
      <trkpt lat="67.82047033" lon="17.64445066"/>
      <trkpt lat="67.82285213" lon="17.64251947"/>
      <trkpt lat="67.82589912" lon="17.64290571"/>
      <trkpt lat="67.82877445" lon="17.64333487"/>
      <trkpt lat="67.83072710" lon="17.64505148"/>
      <trkpt lat="67.83270121" lon="17.64786243"/>
      <trkpt lat="67.83493280" lon="17.64676809"/>
      <trkpt lat="67.83791542" lon="17.64410734"/>
      <trkpt lat="67.84134865" lon="17.64202595"/>
      <trkpt lat="67.84366608" lon="17.63818502"/>
      <trkpt lat="67.84576893" lon="17.63659716"/>
      <trkpt lat="67.84757137" lon="17.63739109"/>
      <trkpt lat="67.84922361" lon="17.63633966"/>
      <trkpt lat="67.85115480" lon="17.62775660"/>
      <trkpt lat="67.84922361" lon="17.63633966"/>
      <trkpt lat="67.85115480" lon="17.62775660"/>
      <trkpt lat="67.85381556" lon="17.62282133"/>
      <trkpt lat="67.85548925" lon="17.61629820"/>
      <trkpt lat="67.85823584" lon="17.61466742"/>
      <trkpt lat="67.85920143" lon="17.61831522"/>
      <trkpt lat="67.85821438" lon="17.62245655"/>
      <trkpt lat="67.85834053" lon="17.62714581"/>
      <trkpt lat="67.85959639" lon="17.63077484"/>
      <trkpt lat="67.86063926" lon="17.63504030"/>
      <trkpt lat="67.86179253" lon="17.63886061"/>
      <trkpt lat="67.86351333" lon="17.64021621"/>
      <trkpt lat="67.86533187" lon="17.64129630"/>
      <trkpt lat="67.86710724" lon="17.64233273"/>
      <trkpt lat="67.86893584" lon="17.64367626"/>
      <trkpt lat="67.87074180" lon="17.64484520"/>
      <trkpt lat="67.87250913" lon="17.64593636"/>
      <trkpt lat="67.87433554" lon="17.64687262"/>
      <trkpt lat="67.87612273" lon="17.64746488"/>
      <trkpt lat="67.87791076" lon="17.64808279"/>
      <trkpt lat="67.87948195" lon="17.65036460"/>
      <trkpt lat="67.88104199" lon="17.65287079"/>
      <trkpt lat="67.88220640" lon="17.65641097"/>
      <trkpt lat="67.88275559" lon="17.66104633"/>
      <trkpt lat="67.88331709" lon="17.66581035"/>
      <trkpt lat="67.88385537" lon="17.67041738"/>
      <trkpt lat="67.88442224" lon="17.67516967"/>
      <trkpt lat="67.88475065" lon="17.68007912"/>
      <trkpt lat="67.88500386" lon="17.68466243"/>
      <trkpt lat="67.88525138" lon="17.68970657"/>
      <trkpt lat="67.88532120" lon="17.69462859"/>
      <trkpt lat="67.88494444" lon="17.69950309"/>
      <trkpt lat="67.88442786" lon="17.70494982"/>
      <trkpt lat="67.88403089" lon="17.70976346"/>
      <trkpt lat="67.88359218" lon="17.71455925"/>
      <trkpt lat="67.88315758" lon="17.71937247"/>
      <trkpt lat="67.88273874" lon="17.72413583"/>
      <trkpt lat="67.88234093" lon="17.72869173"/>
      <trkpt lat="67.88189703" lon="17.73371307"/>
      <trkpt lat="67.88163015" lon="17.73847609"/>
      <trkpt lat="67.88153862" lon="17.74342066"/>
      <trkpt lat="67.88144273" lon="17.74835022"/>
      <trkpt lat="67.88134743" lon="17.75318365"/>
      <trkpt lat="67.88141037" lon="17.75807918"/>
      <trkpt lat="67.88183684" lon="17.76277590"/>
      <trkpt lat="67.88223574" lon="17.76757965"/>
      <trkpt lat="67.88263782" lon="17.77225851"/>
      <trkpt lat="67.88307116" lon="17.77695715"/>
      <trkpt lat="67.88346134" lon="17.78162026"/>
      <trkpt lat="67.88378790" lon="17.78632896"/>
      <trkpt lat="67.88419803" lon="17.79120035"/>
      <trkpt lat="67.88460354" lon="17.79586907"/>
      <trkpt lat="67.88495801" lon="17.80008584"/>
      <trkpt lat="67.88537560" lon="17.80504139"/>
      <trkpt lat="67.88577089" lon="17.80983525"/>
      <trkpt lat="67.88618110" lon="17.81471545"/>
      <trkpt lat="67.88696598" lon="17.81904269"/>
      <trkpt lat="67.88776159" lon="17.82330019"/>
      <trkpt lat="67.88860012" lon="17.82779365"/>
      <trkpt lat="67.88944543" lon="17.83243437"/>
      <trkpt lat="67.89031841" lon="17.83699254"/>
      <trkpt lat="67.89115123" lon="17.84144584"/>
      <trkpt lat="67.89192162" lon="17.84605966"/>
      <trkpt lat="67.89258814" lon="17.85050894"/>
      <trkpt lat="67.89325425" lon="17.85535636"/>
      <trkpt lat="67.89401927" lon="17.86028258"/>
      <trkpt lat="67.89477792" lon="17.86508088"/>
      <trkpt lat="67.89549868" lon="17.86960476"/>
      <trkpt lat="67.89613956" lon="17.87354920"/>
      <trkpt lat="67.89678463" lon="17.87756036"/>
      <trkpt lat="67.89750455" lon="17.88194703"/>
      <trkpt lat="67.89825356" lon="17.88648139"/>
      <trkpt lat="67.89896141" lon="17.89091240"/>
      <trkpt lat="67.89967429" lon="17.89532689"/>
      <trkpt lat="67.90041558" lon="17.89971851"/>
      <trkpt lat="67.90117071" lon="17.90423585"/>
      <trkpt lat="67.90192961" lon="17.90873299"/>
      <trkpt lat="67.90267199" lon="17.91333156"/>
      <trkpt lat="67.90345486" lon="17.91787346"/>
      <trkpt lat="67.90420312" lon="17.92204262"/>
      <trkpt lat="67.90493594" lon="17.92663129"/>
      <trkpt lat="67.90569719" lon="17.93104428"/>
      <trkpt lat="67.90638509" lon="17.93555299"/>
      <trkpt lat="67.90763274" lon="17.93926978"/>
      <trkpt lat="67.90876103" lon="17.94212423"/>
      <trkpt lat="67.91057437" lon="17.94463109"/>
      <trkpt lat="67.91224999" lon="17.94757280"/>
      <trkpt lat="67.91384272" lon="17.94982871"/>
      <trkpt lat="67.91545775" lon="17.95212418"/>
      <trkpt lat="67.91704897" lon="17.95434840"/>
      <trkpt lat="67.91882769" lon="17.95553016"/>
      <trkpt lat="67.92074044" lon="17.95593468"/>
      <trkpt lat="67.92264347" lon="17.95628319"/>
      <trkpt lat="67.92408507" lon="17.95821631"/>
      <trkpt lat="67.92582373" lon="17.96019687"/>
      <trkpt lat="67.92756842" lon="17.96224675"/>
      <trkpt lat="67.92929292" lon="17.96409982"/>
      <trkpt lat="67.93100618" lon="17.96597075"/>
      <trkpt lat="67.93275431" lon="17.96785424"/>
      <trkpt lat="67.93446355" lon="17.96875446"/>
      <trkpt lat="67.93787766" lon="17.97827320"/>
      <trkpt lat="67.93786618" lon="17.98480924"/>
      <trkpt lat="67.93732974" lon="17.99227651"/>
      <trkpt lat="67.93772997" lon="17.99833395"/>
      <trkpt lat="67.93941750" lon="18.00138186"/>
      <trkpt lat="67.94191757" lon="18.00498096"/>
      <trkpt lat="67.94409636" lon="18.01056859"/>
      <trkpt lat="67.94499373" lon="18.01620022"/>
      <trkpt lat="67.94607542" lon="18.02468657"/>
      <trkpt lat="67.94648982" lon="18.03032432"/>
      <trkpt lat="67.94702458" lon="18.03671292"/>
      <trkpt lat="67.94706037" lon="18.04341794"/>
      <trkpt lat="67.94555431" lon="18.04717119"/>
      <trkpt lat="67.94336605" lon="18.05193546"/>
      <trkpt lat="67.94157852" lon="18.05778335"/>
      <trkpt lat="67.94050514" lon="18.06199911"/>
      <trkpt lat="67.93927249" lon="18.06624941"/>
      <trkpt lat="67.93790708" lon="18.07195304"/>
      <trkpt lat="67.93523099" lon="18.07811298"/>
      <trkpt lat="67.93302781" lon="18.08307717"/>
      <trkpt lat="67.93105219" lon="18.08612298"/>
      <trkpt lat="67.92937732" lon="18.08818602"/>
      <trkpt lat="67.92732485" lon="18.09146460"/>
      <trkpt lat="67.92438959" lon="18.09762019"/>
      <trkpt lat="67.92100506" lon="18.10100514"/>
      <trkpt lat="67.91900463" lon="18.10509249"/>
      <trkpt lat="67.91736924" lon="18.11206296"/>
      <trkpt lat="67.91633634" lon="18.11712471"/>
      <trkpt lat="67.90793692" lon="18.15362530"/>
      <trkpt lat="67.90591512" lon="18.17770215"/>
      <trkpt lat="67.90571286" lon="18.18608598"/>
      <trkpt lat="67.90571286" lon="18.19127161"/>
      <trkpt lat="67.90656136" lon="18.20015819"/>
      <trkpt lat="67.90677669" lon="18.20750962"/>
      <trkpt lat="67.90559401" lon="18.21674120"/>
      <trkpt lat="67.90542411" lon="18.22539425"/>
      <trkpt lat="67.90512286" lon="18.23271467"/>
      <trkpt lat="67.90562049" lon="18.23766603"/>
      <trkpt lat="67.90654158" lon="18.24547168"/>
      <trkpt lat="67.90828183" lon="18.25436991"/>
      <trkpt lat="67.90855500" lon="18.25914734"/>
      <trkpt lat="67.90879933" lon="18.26532581"/>
      <trkpt lat="67.91108273" lon="18.28814026"/>
      <trkpt lat="67.92291714" lon="18.29228855"/>
      <trkpt lat="67.94586662" lon="18.28233646"/>
      <trkpt lat="67.94617625" lon="18.28219489"/>
      <trkpt lat="67.94627826" lon="18.28250938"/>
      <trkpt lat="67.94810409" lon="18.28170665"/>
      <trkpt lat="67.94992070" lon="18.28126576"/>
      <trkpt lat="67.95172222" lon="18.28048280"/>
      <trkpt lat="67.95356800" lon="18.27972357"/>
      <trkpt lat="67.95540255" lon="18.27862680"/>
      <trkpt lat="67.95716442" lon="18.27742366"/>
      <trkpt lat="67.95908572" lon="18.27616537"/>
      <trkpt lat="67.96089420" lon="18.27489300"/>
      <trkpt lat="67.96278943" lon="18.27365851"/>
      <trkpt lat="67.96466363" lon="18.27240131"/>
      <trkpt lat="67.96652500" lon="18.27126472"/>
      <trkpt lat="67.96827765" lon="18.27011900"/>
      <trkpt lat="67.97008253" lon="18.26862241"/>
      <trkpt lat="67.97183527" lon="18.26722062"/>
      <trkpt lat="67.97355917" lon="18.26574356"/>
      <trkpt lat="67.97539850" lon="18.26492038"/>
      <trkpt lat="67.97721460" lon="18.26386426"/>
      <trkpt lat="67.97897866" lon="18.26246196"/>
      <trkpt lat="67.98076283" lon="18.26130082"/>
      <trkpt lat="67.98266008" lon="18.26115036"/>
      <trkpt lat="67.98455967" lon="18.26116294"/>
      <trkpt lat="67.98643059" lon="18.26103075"/>
      <trkpt lat="67.98835164" lon="18.26104676"/>
      <trkpt lat="67.99042960" lon="18.25967146"/>
      <trkpt lat="67.99236917" lon="18.25733677"/>
      <trkpt lat="67.99401068" lon="18.25524020"/>
      <trkpt lat="67.99587599" lon="18.25297264"/>
      <trkpt lat="67.99761808" lon="18.25168979"/>
      <trkpt lat="67.99930092" lon="18.24979565"/>
      <trkpt lat="68.00126245" lon="18.24867449"/>
      <trkpt lat="68.00298032" lon="18.24708243"/>
      <trkpt lat="68.00476911" lon="18.24560520"/>
      <trkpt lat="68.00649628" lon="18.24426200"/>
      <trkpt lat="68.00778064" lon="18.24323807"/>
      <trkpt lat="68.00944042" lon="18.24162631"/>
      <trkpt lat="68.01100558" lon="18.24075820"/>
      <trkpt lat="68.01268548" lon="18.24025042"/>
      <trkpt lat="68.01440435" lon="18.24012335"/>
      <trkpt lat="68.01517624" lon="18.24150922"/>
      <trkpt lat="68.01626069" lon="18.24304428"/>
      <trkpt lat="68.01827495" lon="18.24468822"/>
      <trkpt lat="68.01977204" lon="18.24733355"/>
      <trkpt lat="68.01854946" lon="18.24417558"/>
      <trkpt lat="68.02004328" lon="18.24721394"/>
      <trkpt lat="68.02132077" lon="18.25107238"/>
      <trkpt lat="68.02328213" lon="18.25040015"/>
      <trkpt lat="68.02526328" lon="18.24926524"/>
      <trkpt lat="68.02704158" lon="18.24864800"/>
      <trkpt lat="68.02920043" lon="18.24826134"/>
      <trkpt lat="68.03124100" lon="18.24774996"/>
      <trkpt lat="68.03329968" lon="18.24742944"/>
      <trkpt lat="68.03519508" lon="18.24714437"/>
      <trkpt lat="68.03737454" lon="18.24683843"/>
      <trkpt lat="68.03937580" lon="18.24602790"/>
      <trkpt lat="68.04142962" lon="18.24538350"/>
      <trkpt lat="68.04326987" lon="18.24535400"/>
      <trkpt lat="68.04530684" lon="18.24522056"/>
      <trkpt lat="68.04722026" lon="18.24223065"/>
      <trkpt lat="68.04885792" lon="18.23971834"/>
      <trkpt lat="68.05062474" lon="18.24059450"/>
      <trkpt lat="68.05241109" lon="18.24230215"/>
      <trkpt lat="68.05376242" lon="18.24572749"/>
      <trkpt lat="68.05527644" lon="18.24932920"/>
      <trkpt lat="68.05715223" lon="18.25095202"/>
      <trkpt lat="68.05909557" lon="18.25224325"/>
      <trkpt lat="68.06089927" lon="18.25254056"/>
      <trkpt lat="68.06235638" lon="18.25538462"/>
      <trkpt lat="68.06417333" lon="18.25707911"/>
      <trkpt lat="68.06586765" lon="18.26039960"/>
      <trkpt lat="68.06739810" lon="18.26288936"/>
      <trkpt lat="68.06952241" lon="18.26523931"/>
      <trkpt lat="68.07150372" lon="18.26789352"/>
      <trkpt lat="68.07321891" lon="18.27032117"/>
      <trkpt lat="68.07525563" lon="18.27231120"/>
      <trkpt lat="68.07702849" lon="18.27430333"/>
      <trkpt lat="68.07885189" lon="18.27621759"/>
      <trkpt lat="68.08057873" lon="18.27809128"/>
      <trkpt lat="68.08250606" lon="18.28016429"/>
      <trkpt lat="68.08421496" lon="18.28184227"/>
      <trkpt lat="68.08602286" lon="18.28335847"/>
      <trkpt lat="68.08787283" lon="18.28507307"/>
      <trkpt lat="68.08982036" lon="18.28784103"/>
      <trkpt lat="68.09144787" lon="18.29080696"/>
      <trkpt lat="68.09294153" lon="18.29424371"/>
      <trkpt lat="68.09426922" lon="18.29779588"/>
      <trkpt lat="68.09560111" lon="18.30126900"/>
      <trkpt lat="68.09719878" lon="18.30522409"/>
      <trkpt lat="68.09860770" lon="18.30874667"/>
      <trkpt lat="68.10008140" lon="18.31253126"/>
      <trkpt lat="68.10175862" lon="18.31675809"/>
      <trkpt lat="68.10317977" lon="18.32053288"/>
      <trkpt lat="68.10448182" lon="18.32424816"/>
      <trkpt lat="68.10574304" lon="18.32842704"/>
      <trkpt lat="68.10690134" lon="18.33280524"/>
      <trkpt lat="68.10786601" lon="18.33749249"/>
      <trkpt lat="68.10862734" lon="18.34260855"/>
      <trkpt lat="68.10940451" lon="18.34728825"/>
      <trkpt lat="68.11023767" lon="18.35222561"/>
      <trkpt lat="68.11113596" lon="18.35640198"/>
      <trkpt lat="68.11235880" lon="18.36022974"/>
      <trkpt lat="68.11355850" lon="18.36385885"/>
      <trkpt lat="68.11488586" lon="18.36762568"/>
      <trkpt lat="68.11620081" lon="18.37156970"/>
      <trkpt lat="68.11767443" lon="18.37567935"/>
      <trkpt lat="68.11872485" lon="18.38048620"/>
      <trkpt lat="68.12005699" lon="18.38483104"/>
      <trkpt lat="68.12121101" lon="18.38852361"/>
      <trkpt lat="68.12259234" lon="18.39280081"/>
      <trkpt lat="68.12403604" lon="18.39616631"/>
      <trkpt lat="68.12587252" lon="18.39958998"/>
      <trkpt lat="68.12739559" lon="18.40300284"/>
      <trkpt lat="68.12914792" lon="18.40728809"/>
      <trkpt lat="68.13082530" lon="18.41080053"/>
      <trkpt lat="68.13252440" lon="18.41247590"/>
      <trkpt lat="68.13456388" lon="18.41323975"/>
      <trkpt lat="68.13604362" lon="18.41469275"/>
      <trkpt lat="68.13712950" lon="18.41842068"/>
      <trkpt lat="68.13819182" lon="18.42237937"/>
      <trkpt lat="68.13923797" lon="18.42703418"/>
      <trkpt lat="68.14045016" lon="18.43114651"/>
      <trkpt lat="68.14238512" lon="18.43338825"/>
      <trkpt lat="68.14430181" lon="18.43240656"/>
      <trkpt lat="68.15268120" lon="18.44026342"/>
      <trkpt lat="68.15520155" lon="18.44120764"/>
      <trkpt lat="68.15995862" lon="18.44465260"/>
      <trkpt lat="68.16773803" lon="18.45483997"/>
      <trkpt lat="68.17436183" lon="18.46193919"/>
      <trkpt lat="68.17734981" lon="18.46417221"/>
      <trkpt lat="68.18013093" lon="18.46577022"/>
      <trkpt lat="68.18253754" lon="18.46989806"/>
      <trkpt lat="68.18383271" lon="18.47300129"/>
      <trkpt lat="68.18500609" lon="18.47743372"/>
      <trkpt lat="68.18616950" lon="18.48164798"/>
      <trkpt lat="68.18716041" lon="18.48562201"/>
      <trkpt lat="68.18879681" lon="18.48787255"/>
      <trkpt lat="68.19019860" lon="18.49160937"/>
      <trkpt lat="68.19138690" lon="18.49540503"/>
      <trkpt lat="68.19258752" lon="18.49943790"/>
      <trkpt lat="68.19379611" lon="18.50348426"/>
      <trkpt lat="68.19654093" lon="18.51231627"/>
      <trkpt lat="68.19778891" lon="18.51615233"/>
      <trkpt lat="68.19896456" lon="18.52031512"/>
      <trkpt lat="68.20021698" lon="18.52427884"/>
      <trkpt lat="68.23604593" lon="18.60206173"/>
      <trkpt lat="68.23812489" lon="18.60233464"/>
      <trkpt lat="68.24012817" lon="18.60346486"/>
      <trkpt lat="68.24245398" lon="18.60393768"/>
      <trkpt lat="68.24435768" lon="18.60321290"/>
      <trkpt lat="68.24547842" lon="18.60237152"/>
      <trkpt lat="68.24809701" lon="18.60089044"/>
      <trkpt lat="68.25004589" lon="18.60005409"/>
      <trkpt lat="68.25207355" lon="18.59794194"/>
      <trkpt lat="68.25295650" lon="18.59583322"/>
      <trkpt lat="68.25398874" lon="18.59391242"/>
      <trkpt lat="68.25576360" lon="18.59079653"/>
      <trkpt lat="68.25719758" lon="18.58782305"/>
      <trkpt lat="68.25852619" lon="18.58649712"/>
      <trkpt lat="68.26004340" lon="18.58420492"/>
      <trkpt lat="68.26062134" lon="18.58177140"/>
      <trkpt lat="68.25998708" lon="18.57695005"/>
      <trkpt lat="68.26111277" lon="18.57271400"/>
      <trkpt lat="68.26278018" lon="18.57045885"/>
      <trkpt lat="68.26441163" lon="18.56820110"/>
      <trkpt lat="68.26623268" lon="18.56936853"/>
      <trkpt lat="68.26816957" lon="18.57071911"/>
      <trkpt lat="68.27028735" lon="18.57006809"/>
      <trkpt lat="68.27243362" lon="18.57058542"/>
      <trkpt lat="68.27450034" lon="18.57171035"/>
      <trkpt lat="68.27633430" lon="18.57155177"/>
      <trkpt lat="68.27877201" lon="18.57181052"/>
      <trkpt lat="68.28026525" lon="18.57488458"/>
      <trkpt lat="68.28121433" lon="18.57886632"/>
      <trkpt lat="68.28246650" lon="18.58326824"/>
      <trkpt lat="68.28422469" lon="18.58641615"/>
      <trkpt lat="68.28583041" lon="18.58996094"/>
      <trkpt lat="68.28619435" lon="18.59086644"/>
      <trkpt lat="68.28622101" lon="18.59321564"/>
      <trkpt lat="68.28678964" lon="18.59775972"/>
      <trkpt lat="68.28775414" lon="18.60316269"/>
      <trkpt lat="68.28898922" lon="18.60793870"/>
      <trkpt lat="68.29028958" lon="18.61209964"/>
      <trkpt lat="68.29177327" lon="18.61617090"/>
      <trkpt lat="68.29318335" lon="18.62020419"/>
      <trkpt lat="68.29450945" lon="18.62431870"/>
      <trkpt lat="68.29585575" lon="18.62881609"/>
      <trkpt lat="68.29733441" lon="18.63376058"/>
      <trkpt lat="68.29887559" lon="18.63874982"/>
      <trkpt lat="68.30032473" lon="18.64349507"/>
      <trkpt lat="68.30193532" lon="18.64828927"/>
      <trkpt lat="68.30345512" lon="18.65289110"/>
      <trkpt lat="68.30461233" lon="18.65675348"/>
      <trkpt lat="68.30567859" lon="18.66110788"/>
      <trkpt lat="68.30676505" lon="18.66520713"/>
      <trkpt lat="68.30785361" lon="18.66959204"/>
      <trkpt lat="68.30888735" lon="18.67365349"/>
      <trkpt lat="68.30942321" lon="18.67831266"/>
      <trkpt lat="68.31087696" lon="18.68206942"/>
      <trkpt lat="68.31183610" lon="18.68682724"/>
      <trkpt lat="68.31177198" lon="18.69247883"/>
      <trkpt lat="68.31281126" lon="18.69784534"/>
      <trkpt lat="68.31276901" lon="18.70289552"/>
      <trkpt lat="68.31295869" lon="18.70785031"/>
      <trkpt lat="68.31305073" lon="18.71299144"/>
      <trkpt lat="68.31348709" lon="18.71775102"/>
      <trkpt lat="68.31453692" lon="18.72173871"/>
      <trkpt lat="68.31494797" lon="18.72665168"/>
      <trkpt lat="68.31546262" lon="18.73087188"/>
      <trkpt lat="68.31588255" lon="18.73530633"/>
      <trkpt lat="68.31669861" lon="18.73857334"/>
      <trkpt lat="68.31826343" lon="18.74068508"/>
      <trkpt lat="68.31950580" lon="18.74381530"/>
      <trkpt lat="68.32076157" lon="18.74529412"/>
      <trkpt lat="68.32180806" lon="18.74888853"/>
      <trkpt lat="68.32340950" lon="18.75467665"/>
      <trkpt lat="68.32852984" lon="18.75821047"/>
      <trkpt lat="68.33403365" lon="18.76380203"/>
      <trkpt lat="68.33790441" lon="18.76670167"/>
      <trkpt lat="68.33999083" lon="18.76794445"/>
      <trkpt lat="68.34226686" lon="18.76958010"/>
      <trkpt lat="68.34465729" lon="18.77062113"/>
      <trkpt lat="68.34797912" lon="18.77065977"/>
      <trkpt lat="68.35080332" lon="18.77065977"/>
      <trkpt lat="68.35263217" lon="18.77108348"/>
      <trkpt lat="68.35446009" lon="18.77214680"/>
      <trkpt lat="68.35687274" lon="18.77503236"/>
      <trkpt lat="68.35845348" lon="18.77930746"/>
      <trkpt lat="68.36040781" lon="18.78343211"/>
    </trkseg>
  </trk>
</gpx>
