<?xml version="1.0" encoding="utf-8"?>
<gpx xmlns="http://www.topografix.com/GPX/1/1" version="1.1" creator="VitaBandet">
  <metadata>
    <name>Lapplandsleden winter</name>
    <desc>Official Länsstyrelsen winter trail (red crosses), Borgafjäll → Hemavan. Cleaned Esri export, simplified for the map.</desc>
  </metadata>
  <wpt lat="64.850710" lon="15.111800">
    <name>Borgafjäll</name>
    <desc>Official winter trail starts here</desc>
    <sym>Flag, Blue</sym>
  </wpt>
  <wpt lat="64.984010" lon="14.717960">
    <name>Slipsikstugan</name>
    <desc>Länsstyrelsen hut · unlocked · 200 kr</desc>
    <sym>Lodging</sym>
  </wpt>
  <wpt lat="65.052910" lon="14.769990">
    <name>Klimpfjäll</name>
    <desc>Shop · shorter join</desc>
    <sym>Flag, Blue</sym>
  </wpt>
  <wpt lat="65.185522" lon="14.566881">
    <name>Tjåkkelestugan</name>
    <desc>Länsstyrelsen hut · unlocked · 200 kr</desc>
    <sym>Lodging</sym>
  </wpt>
  <wpt lat="65.304438" lon="14.605300">
    <name>Åtnikstugan</name>
    <desc>Länsstyrelsen hut · unlocked · 200 kr</desc>
    <sym>Lodging</sym>
  </wpt>
  <wpt lat="65.516097" lon="14.549428">
    <name>Arevattnet</name>
    <desc>Länsstyrelsen hut · unlocked · 200 kr</desc>
    <sym>Lodging</sym>
  </wpt>
  <wpt lat="65.520000" lon="14.530000">
    <name>Gränssjöarna</name>
    <desc>Optional cabin / shower · ~1 km off</desc>
    <sym>Lodging</sym>
  </wpt>
  <wpt lat="65.683358" lon="14.589427">
    <name>Atostugan</name>
    <desc>Atoklimpen rastplats · not an overnight hut</desc>
    <sym>Flag, Blue</sym>
  </wpt>
  <wpt lat="65.829230" lon="15.098280">
    <name>Hemavan</name>
    <desc>Shop · bus 31 · airport</desc>
    <sym>Flag, Blue</sym>
  </wpt>
  <trk>
    <name>Lapplandsleden winter</name>
    <trkseg>
      <trkpt lat="64.850714" lon="15.111801"/>
      <trkpt lat="64.851267" lon="15.109759"/>
      <trkpt lat="64.853630" lon="15.110727"/>
      <trkpt lat="64.855041" lon="15.112961"/>
      <trkpt lat="64.855522" lon="15.112916"/>
      <trkpt lat="64.858426" lon="15.104685"/>
      <trkpt lat="64.858989" lon="15.099012"/>
      <trkpt lat="64.858311" lon="15.095453"/>
      <trkpt lat="64.858620" lon="15.090024"/>
      <trkpt lat="64.860633" lon="15.085696"/>
      <trkpt lat="64.861728" lon="15.080314"/>
      <trkpt lat="64.861298" lon="15.077427"/>
      <trkpt lat="64.860401" lon="15.075104"/>
      <trkpt lat="64.860398" lon="15.071440"/>
      <trkpt lat="64.859508" lon="15.068276"/>
      <trkpt lat="64.861899" lon="15.057102"/>
      <trkpt lat="64.861521" lon="15.054860"/>
      <trkpt lat="64.861727" lon="15.051012"/>
      <trkpt lat="64.864118" lon="15.038759"/>
      <trkpt lat="64.867499" lon="15.034737"/>
      <trkpt lat="64.868308" lon="15.032530"/>
      <trkpt lat="64.870324" lon="15.029949"/>
      <trkpt lat="64.875475" lon="15.025186"/>
      <trkpt lat="64.876058" lon="15.022411"/>
      <trkpt lat="64.878936" lon="15.018732"/>
      <trkpt lat="64.880054" lon="15.015535"/>
      <trkpt lat="64.882165" lon="15.015033"/>
      <trkpt lat="64.883185" lon="15.015657"/>
      <trkpt lat="64.884480" lon="15.014568"/>
      <trkpt lat="64.884621" lon="15.009218"/>
      <trkpt lat="64.885351" lon="15.006856"/>
      <trkpt lat="64.888174" lon="15.005189"/>
      <trkpt lat="64.889274" lon="15.001417"/>
      <trkpt lat="64.889453" lon="14.997325"/>
      <trkpt lat="64.890600" lon="14.990124"/>
      <trkpt lat="64.892366" lon="14.984437"/>
      <trkpt lat="64.892524" lon="14.982179"/>
      <trkpt lat="64.896119" lon="14.971234"/>
      <trkpt lat="64.897437" lon="14.968991"/>
      <trkpt lat="64.897532" lon="14.967328"/>
      <trkpt lat="64.894325" lon="14.962427"/>
      <trkpt lat="64.892954" lon="14.958542"/>
      <trkpt lat="64.891490" lon="14.956030"/>
      <trkpt lat="64.891277" lon="14.949069"/>
      <trkpt lat="64.892254" lon="14.939309"/>
      <trkpt lat="64.894205" lon="14.933600"/>
      <trkpt lat="64.894740" lon="14.926994"/>
      <trkpt lat="64.897545" lon="14.912748"/>
      <trkpt lat="64.898806" lon="14.902505"/>
      <trkpt lat="64.898629" lon="14.898810"/>
      <trkpt lat="64.901320" lon="14.896808"/>
      <trkpt lat="64.906598" lon="14.885667"/>
      <trkpt lat="64.911998" lon="14.880944"/>
      <trkpt lat="64.915168" lon="14.874621"/>
      <trkpt lat="64.917874" lon="14.871279"/>
      <trkpt lat="64.919743" lon="14.865707"/>
      <trkpt lat="64.923846" lon="14.856794"/>
      <trkpt lat="64.924057" lon="14.855392"/>
      <trkpt lat="64.927655" lon="14.853774"/>
      <trkpt lat="64.933802" lon="14.847579"/>
      <trkpt lat="64.934842" lon="14.845034"/>
      <trkpt lat="64.937472" lon="14.841981"/>
      <trkpt lat="64.938251" lon="14.839778"/>
      <trkpt lat="64.940736" lon="14.835893"/>
      <trkpt lat="64.948755" lon="14.831084"/>
      <trkpt lat="64.950958" lon="14.830891"/>
      <trkpt lat="64.952302" lon="14.829865"/>
      <trkpt lat="64.962839" lon="14.809751"/>
      <trkpt lat="64.965506" lon="14.806441"/>
      <trkpt lat="64.969496" lon="14.795587"/>
      <trkpt lat="64.972057" lon="14.784039"/>
      <trkpt lat="64.979652" lon="14.760326"/>
      <trkpt lat="64.983978" lon="14.717676"/>
    </trkseg>
    <trkseg>
      <trkpt lat="64.978284" lon="14.705752"/>
      <trkpt lat="64.980767" lon="14.715102"/>
      <trkpt lat="64.991667" lon="14.724452"/>
      <trkpt lat="64.995534" lon="14.723468"/>
      <trkpt lat="65.004967" lon="14.724302"/>
      <trkpt lat="65.010067" lon="14.727102"/>
      <trkpt lat="65.016867" lon="14.733918"/>
      <trkpt lat="65.024684" lon="14.735018"/>
      <trkpt lat="65.030667" lon="14.732402"/>
      <trkpt lat="65.034434" lon="14.727868"/>
      <trkpt lat="65.037517" lon="14.727718"/>
      <trkpt lat="65.040417" lon="14.728835"/>
      <trkpt lat="65.042900" lon="14.724218"/>
      <trkpt lat="65.043500" lon="14.726785"/>
      <trkpt lat="65.045650" lon="14.731202"/>
      <trkpt lat="65.046500" lon="14.734568"/>
      <trkpt lat="65.047950" lon="14.736502"/>
      <trkpt lat="65.050234" lon="14.735618"/>
      <trkpt lat="65.050833" lon="14.736446"/>
    </trkseg>
    <trkseg>
      <trkpt lat="65.050963" lon="14.737452"/>
      <trkpt lat="65.050833" lon="14.743460"/>
      <trkpt lat="65.053998" lon="14.755224"/>
      <trkpt lat="65.054425" lon="14.749220"/>
      <trkpt lat="65.055035" lon="14.748283"/>
      <trkpt lat="65.058005" lon="14.747737"/>
      <trkpt lat="65.058528" lon="14.746801"/>
      <trkpt lat="65.060276" lon="14.746991"/>
      <trkpt lat="65.062632" lon="14.745417"/>
      <trkpt lat="65.064075" lon="14.746334"/>
      <trkpt lat="65.065614" lon="14.752220"/>
      <trkpt lat="65.065837" lon="14.754702"/>
      <trkpt lat="65.067937" lon="14.756649"/>
      <trkpt lat="65.068853" lon="14.755502"/>
      <trkpt lat="65.068851" lon="14.754363"/>
      <trkpt lat="65.072682" lon="14.745942"/>
      <trkpt lat="65.079839" lon="14.741731"/>
      <trkpt lat="65.083416" lon="14.745376"/>
      <trkpt lat="65.083833" lon="14.748750"/>
      <trkpt lat="65.085172" lon="14.749900"/>
      <trkpt lat="65.087958" lon="14.757127"/>
    </trkseg>
    <trkseg>
      <trkpt lat="65.089008" lon="14.754975"/>
      <trkpt lat="65.089974" lon="14.753410"/>
      <trkpt lat="65.091374" lon="14.753042"/>
      <trkpt lat="65.097324" lon="14.748543"/>
      <trkpt lat="65.103041" lon="14.749358"/>
      <trkpt lat="65.106808" lon="14.746193"/>
      <trkpt lat="65.108691" lon="14.746526"/>
      <trkpt lat="65.111191" lon="14.744326"/>
      <trkpt lat="65.112958" lon="14.734809"/>
      <trkpt lat="65.117324" lon="14.725326"/>
      <trkpt lat="65.120674" lon="14.714459"/>
      <trkpt lat="65.122524" lon="14.710843"/>
      <trkpt lat="65.126191" lon="14.709226"/>
      <trkpt lat="65.129024" lon="14.699142"/>
      <trkpt lat="65.130091" lon="14.696526"/>
      <trkpt lat="65.131574" lon="14.694875"/>
      <trkpt lat="65.134941" lon="14.693592"/>
      <trkpt lat="65.142758" lon="14.697010"/>
      <trkpt lat="65.144174" lon="14.696959"/>
      <trkpt lat="65.146558" lon="14.693076"/>
      <trkpt lat="65.148291" lon="14.683743"/>
      <trkpt lat="65.149208" lon="14.680542"/>
      <trkpt lat="65.152424" lon="14.672958"/>
      <trkpt lat="65.154808" lon="14.662474"/>
      <trkpt lat="65.159524" lon="14.627175"/>
      <trkpt lat="65.161574" lon="14.618974"/>
      <trkpt lat="65.164674" lon="14.601809"/>
      <trkpt lat="65.166241" lon="14.578958"/>
      <trkpt lat="65.166733" lon="14.576228"/>
    </trkseg>
    <trkseg>
      <trkpt lat="65.170509" lon="14.577405"/>
      <trkpt lat="65.173417" lon="14.578819"/>
      <trkpt lat="65.174684" lon="14.577969"/>
      <trkpt lat="65.175517" lon="14.575085"/>
      <trkpt lat="65.177050" lon="14.572019"/>
      <trkpt lat="65.179284" lon="14.570752"/>
      <trkpt lat="65.182817" lon="14.566535"/>
      <trkpt lat="65.184234" lon="14.566429"/>
    </trkseg>
    <trkseg>
      <trkpt lat="65.184750" lon="14.566535"/>
      <trkpt lat="65.186567" lon="14.567969"/>
      <trkpt lat="65.187500" lon="14.566802"/>
      <trkpt lat="65.188034" lon="14.567435"/>
      <trkpt lat="65.189017" lon="14.565119"/>
      <trkpt lat="65.189284" lon="14.560385"/>
      <trkpt lat="65.190467" lon="14.558402"/>
      <trkpt lat="65.190484" lon="14.556185"/>
      <trkpt lat="65.189084" lon="14.547652"/>
      <trkpt lat="65.188276" lon="14.545651"/>
    </trkseg>
    <trkseg>
      <trkpt lat="65.190350" lon="14.544549"/>
      <trkpt lat="65.199300" lon="14.545001"/>
      <trkpt lat="65.204017" lon="14.539950"/>
      <trkpt lat="65.211033" lon="14.530668"/>
      <trkpt lat="65.217300" lon="14.524866"/>
      <trkpt lat="65.219567" lon="14.521834"/>
      <trkpt lat="65.220100" lon="14.521518"/>
      <trkpt lat="65.222217" lon="14.525118"/>
      <trkpt lat="65.223333" lon="14.524249"/>
      <trkpt lat="65.226450" lon="14.516550"/>
      <trkpt lat="65.227717" lon="14.515101"/>
      <trkpt lat="65.239583" lon="14.508966"/>
      <trkpt lat="65.242233" lon="14.505918"/>
      <trkpt lat="65.244867" lon="14.505683"/>
      <trkpt lat="65.249417" lon="14.503385"/>
    </trkseg>
    <trkseg>
      <trkpt lat="65.249784" lon="14.504369"/>
      <trkpt lat="65.251550" lon="14.511885"/>
      <trkpt lat="65.251250" lon="14.515252"/>
      <trkpt lat="65.251850" lon="14.518285"/>
      <trkpt lat="65.251084" lon="14.521769"/>
      <trkpt lat="65.251234" lon="14.524469"/>
      <trkpt lat="65.252667" lon="14.531519"/>
      <trkpt lat="65.252834" lon="14.534119"/>
      <trkpt lat="65.256917" lon="14.546885"/>
      <trkpt lat="65.258534" lon="14.548785"/>
      <trkpt lat="65.259100" lon="14.552019"/>
      <trkpt lat="65.263850" lon="14.560919"/>
      <trkpt lat="65.270717" lon="14.571185"/>
      <trkpt lat="65.275584" lon="14.575285"/>
      <trkpt lat="65.277417" lon="14.578702"/>
      <trkpt lat="65.279067" lon="14.579752"/>
      <trkpt lat="65.280834" lon="14.582802"/>
      <trkpt lat="65.288000" lon="14.587419"/>
      <trkpt lat="65.290650" lon="14.588669"/>
      <trkpt lat="65.291634" lon="14.588002"/>
      <trkpt lat="65.293334" lon="14.589102"/>
      <trkpt lat="65.295984" lon="14.593485"/>
      <trkpt lat="65.297367" lon="14.593919"/>
      <trkpt lat="65.299667" lon="14.598485"/>
      <trkpt lat="65.303433" lon="14.601154"/>
    </trkseg>
    <trkseg>
      <trkpt lat="65.303439" lon="14.601195"/>
      <trkpt lat="65.304667" lon="14.605585"/>
      <trkpt lat="65.305884" lon="14.606902"/>
      <trkpt lat="65.305200" lon="14.609202"/>
      <trkpt lat="65.304884" lon="14.612735"/>
      <trkpt lat="65.305150" lon="14.620685"/>
      <trkpt lat="65.304400" lon="14.627969"/>
      <trkpt lat="65.306350" lon="14.632069"/>
      <trkpt lat="65.309934" lon="14.637002"/>
      <trkpt lat="65.310484" lon="14.638885"/>
      <trkpt lat="65.311600" lon="14.647335"/>
      <trkpt lat="65.311434" lon="14.651319"/>
      <trkpt lat="65.311850" lon="14.656885"/>
      <trkpt lat="65.311000" lon="14.667702"/>
      <trkpt lat="65.309834" lon="14.671452"/>
      <trkpt lat="65.309050" lon="14.676152"/>
      <trkpt lat="65.306984" lon="14.680269"/>
      <trkpt lat="65.305800" lon="14.685735"/>
      <trkpt lat="65.304517" lon="14.688819"/>
      <trkpt lat="65.304184" lon="14.690652"/>
      <trkpt lat="65.304400" lon="14.697219"/>
      <trkpt lat="65.305184" lon="14.701235"/>
      <trkpt lat="65.306000" lon="14.702619"/>
      <trkpt lat="65.307084" lon="14.706402"/>
      <trkpt lat="65.307184" lon="14.709119"/>
      <trkpt lat="65.308650" lon="14.710102"/>
      <trkpt lat="65.312017" lon="14.718335"/>
      <trkpt lat="65.312734" lon="14.721569"/>
      <trkpt lat="65.313000" lon="14.726519"/>
      <trkpt lat="65.317234" lon="14.732519"/>
      <trkpt lat="65.318473" lon="14.739114"/>
      <trkpt lat="65.319326" lon="14.739365"/>
      <trkpt lat="65.321399" lon="14.744624"/>
      <trkpt lat="65.321842" lon="14.747675"/>
      <trkpt lat="65.321895" lon="14.755269"/>
      <trkpt lat="65.322345" lon="14.759349"/>
      <trkpt lat="65.330010" lon="14.778384"/>
      <trkpt lat="65.330309" lon="14.777514"/>
      <trkpt lat="65.333024" lon="14.778417"/>
      <trkpt lat="65.334775" lon="14.777297"/>
      <trkpt lat="65.339546" lon="14.778506"/>
      <trkpt lat="65.340879" lon="14.777939"/>
      <trkpt lat="65.341728" lon="14.778850"/>
      <trkpt lat="65.342858" lon="14.778785"/>
      <trkpt lat="65.346032" lon="14.782548"/>
      <trkpt lat="65.349500" lon="14.783423"/>
      <trkpt lat="65.355297" lon="14.779838"/>
      <trkpt lat="65.360409" lon="14.781065"/>
      <trkpt lat="65.366948" lon="14.781132"/>
      <trkpt lat="65.368481" lon="14.782298"/>
      <trkpt lat="65.373047" lon="14.789065"/>
      <trkpt lat="65.378799" lon="14.790648"/>
      <trkpt lat="65.381859" lon="14.793584"/>
      <trkpt lat="65.389112" lon="14.793046"/>
      <trkpt lat="65.392678" lon="14.793834"/>
      <trkpt lat="65.395299" lon="14.796767"/>
      <trkpt lat="65.399112" lon="14.798299"/>
      <trkpt lat="65.403277" lon="14.801497"/>
      <trkpt lat="65.404777" lon="14.805745"/>
      <trkpt lat="65.406885" lon="14.808926"/>
      <trkpt lat="65.411944" lon="14.808551"/>
      <trkpt lat="65.416085" lon="14.814795"/>
    </trkseg>
    <trkseg>
      <trkpt lat="65.415517" lon="14.803482"/>
      <trkpt lat="65.414407" lon="14.786215"/>
      <trkpt lat="65.415252" lon="14.750487"/>
      <trkpt lat="65.415034" lon="14.709341"/>
      <trkpt lat="65.415947" lon="14.690794"/>
      <trkpt lat="65.416729" lon="14.686032"/>
      <trkpt lat="65.417283" lon="14.686025"/>
    </trkseg>
    <trkseg>
      <trkpt lat="65.425820" lon="14.674515"/>
      <trkpt lat="65.437070" lon="14.671734"/>
      <trkpt lat="65.440426" lon="14.675394"/>
      <trkpt lat="65.459988" lon="14.679660"/>
      <trkpt lat="65.462743" lon="14.684136"/>
      <trkpt lat="65.468314" lon="14.689616"/>
      <trkpt lat="65.482512" lon="14.686719"/>
      <trkpt lat="65.496154" lon="14.682443"/>
      <trkpt lat="65.497949" lon="14.676292"/>
      <trkpt lat="65.500358" lon="14.677856"/>
      <trkpt lat="65.502834" lon="14.674619"/>
      <trkpt lat="65.504026" lon="14.664506"/>
      <trkpt lat="65.504078" lon="14.632984"/>
    </trkseg>
    <trkseg>
      <trkpt lat="65.507915" lon="14.588401"/>
      <trkpt lat="65.512337" lon="14.561751"/>
      <trkpt lat="65.519357" lon="14.581006"/>
      <trkpt lat="65.526621" lon="14.592517"/>
    </trkseg>
    <trkseg>
      <trkpt lat="65.545349" lon="14.583174"/>
      <trkpt lat="65.556883" lon="14.588164"/>
      <trkpt lat="65.581309" lon="14.605902"/>
      <trkpt lat="65.592830" lon="14.606375"/>
      <trkpt lat="65.598971" lon="14.598509"/>
      <trkpt lat="65.608611" lon="14.597064"/>
      <trkpt lat="65.623095" lon="14.603323"/>
      <trkpt lat="65.632220" lon="14.609670"/>
      <trkpt lat="65.642990" lon="14.631568"/>
      <trkpt lat="65.650535" lon="14.650282"/>
      <trkpt lat="65.655621" lon="14.648266"/>
      <trkpt lat="65.662557" lon="14.635835"/>
      <trkpt lat="65.671040" lon="14.599992"/>
      <trkpt lat="65.675322" lon="14.598626"/>
      <trkpt lat="65.685707" lon="14.586924"/>
    </trkseg>
    <trkseg>
      <trkpt lat="65.686336" lon="14.588732"/>
      <trkpt lat="65.688596" lon="14.593029"/>
      <trkpt lat="65.690894" lon="14.593175"/>
      <trkpt lat="65.692208" lon="14.599005"/>
      <trkpt lat="65.693513" lon="14.601684"/>
      <trkpt lat="65.696671" lon="14.603796"/>
      <trkpt lat="65.700674" lon="14.603194"/>
      <trkpt lat="65.701345" lon="14.604534"/>
      <trkpt lat="65.701800" lon="14.608398"/>
      <trkpt lat="65.702884" lon="14.611892"/>
      <trkpt lat="65.709741" lon="14.610799"/>
      <trkpt lat="65.714678" lon="14.619341"/>
      <trkpt lat="65.721061" lon="14.621561"/>
      <trkpt lat="65.722195" lon="14.628232"/>
      <trkpt lat="65.724026" lon="14.676901"/>
      <trkpt lat="65.726387" lon="14.695473"/>
      <trkpt lat="65.727516" lon="14.697559"/>
      <trkpt lat="65.729671" lon="14.697703"/>
      <trkpt lat="65.732508" lon="14.708988"/>
      <trkpt lat="65.739719" lon="14.733805"/>
      <trkpt lat="65.740753" lon="14.743420"/>
      <trkpt lat="65.749525" lon="14.741363"/>
      <trkpt lat="65.750269" lon="14.742587"/>
      <trkpt lat="65.750409" lon="14.745212"/>
      <trkpt lat="65.751157" lon="14.748652"/>
      <trkpt lat="65.751461" lon="14.749060"/>
      <trkpt lat="65.752064" lon="14.746427"/>
      <trkpt lat="65.752536" lon="14.746094"/>
      <trkpt lat="65.753043" lon="14.746171"/>
      <trkpt lat="65.753552" lon="14.748054"/>
      <trkpt lat="65.753066" lon="14.760700"/>
      <trkpt lat="65.750659" lon="14.775989"/>
      <trkpt lat="65.750337" lon="14.786252"/>
      <trkpt lat="65.753752" lon="14.791067"/>
      <trkpt lat="65.759320" lon="14.790940"/>
      <trkpt lat="65.761347" lon="14.792237"/>
      <trkpt lat="65.762767" lon="14.794114"/>
      <trkpt lat="65.763716" lon="14.797145"/>
      <trkpt lat="65.766012" lon="14.797784"/>
      <trkpt lat="65.767124" lon="14.796790"/>
      <trkpt lat="65.769419" lon="14.796443"/>
      <trkpt lat="65.770443" lon="14.802407"/>
      <trkpt lat="65.770216" lon="14.808116"/>
      <trkpt lat="65.770572" lon="14.811729"/>
      <trkpt lat="65.771236" lon="14.811153"/>
      <trkpt lat="65.771740" lon="14.808200"/>
      <trkpt lat="65.772917" lon="14.811616"/>
      <trkpt lat="65.775380" lon="14.811884"/>
      <trkpt lat="65.777016" lon="14.807780"/>
      <trkpt lat="65.779125" lon="14.806052"/>
      <trkpt lat="65.780336" lon="14.805852"/>
      <trkpt lat="65.781553" lon="14.809650"/>
      <trkpt lat="65.780083" lon="14.822604"/>
      <trkpt lat="65.779857" lon="14.830599"/>
      <trkpt lat="65.777992" lon="14.840508"/>
      <trkpt lat="65.778079" lon="14.849167"/>
      <trkpt lat="65.779061" lon="14.854586"/>
      <trkpt lat="65.778323" lon="14.859253"/>
      <trkpt lat="65.779075" lon="14.870288"/>
      <trkpt lat="65.778928" lon="14.881042"/>
      <trkpt lat="65.776436" lon="14.893709"/>
      <trkpt lat="65.776555" lon="14.895992"/>
      <trkpt lat="65.777376" lon="14.896560"/>
      <trkpt lat="65.778433" lon="14.899791"/>
      <trkpt lat="65.777967" lon="14.905027"/>
      <trkpt lat="65.774381" lon="14.922166"/>
      <trkpt lat="65.773210" lon="14.925595"/>
      <trkpt lat="65.771378" lon="14.936065"/>
      <trkpt lat="65.769309" lon="14.942254"/>
      <trkpt lat="65.768491" lon="14.949770"/>
      <trkpt lat="65.769782" lon="14.955190"/>
      <trkpt lat="65.771972" lon="14.959372"/>
      <trkpt lat="65.772246" lon="14.960799"/>
      <trkpt lat="65.774005" lon="14.961653"/>
      <trkpt lat="65.778385" lon="14.968879"/>
      <trkpt lat="65.781395" lon="14.971159"/>
      <trkpt lat="65.783075" lon="14.970681"/>
      <trkpt lat="65.784014" lon="14.973440"/>
      <trkpt lat="65.784249" lon="14.979913"/>
      <trkpt lat="65.786126" lon="14.985432"/>
      <trkpt lat="65.786322" lon="14.987336"/>
      <trkpt lat="65.786439" lon="14.993047"/>
      <trkpt lat="65.785423" lon="15.005517"/>
      <trkpt lat="65.785970" lon="15.007135"/>
      <trkpt lat="65.789253" lon="15.010944"/>
      <trkpt lat="65.789722" lon="15.012563"/>
      <trkpt lat="65.790502" lon="15.025512"/>
      <trkpt lat="65.790267" lon="15.030176"/>
      <trkpt lat="65.790891" lon="15.035794"/>
      <trkpt lat="65.791477" lon="15.037319"/>
      <trkpt lat="65.793158" lon="15.037321"/>
      <trkpt lat="65.794955" lon="15.039609"/>
      <trkpt lat="65.796831" lon="15.039136"/>
      <trkpt lat="65.799021" lon="15.042041"/>
      <trkpt lat="65.798878" lon="15.045199"/>
      <trkpt lat="65.797965" lon="15.049535"/>
      <trkpt lat="65.794843" lon="15.057890"/>
      <trkpt lat="65.795211" lon="15.062299"/>
      <trkpt lat="65.797161" lon="15.069074"/>
      <trkpt lat="65.800658" lon="15.073289"/>
      <trkpt lat="65.805652" lon="15.076797"/>
      <trkpt lat="65.811927" lon="15.073971"/>
      <trkpt lat="65.812510" lon="15.075395"/>
      <trkpt lat="65.814260" lon="15.075756"/>
      <trkpt lat="65.815041" lon="15.086038"/>
      <trkpt lat="65.817610" lon="15.085370"/>
      <trkpt lat="65.817814" lon="15.090204"/>
      <trkpt lat="65.817430" lon="15.093679"/>
      <trkpt lat="65.815277" lon="15.102474"/>
      <trkpt lat="65.815540" lon="15.103240"/>
      <trkpt lat="65.814876" lon="15.105014"/>
    </trkseg>
  </trk>
</gpx>
