<?xml version='1.0' encoding='utf-8'?>
<gpx xmlns="http://www.topografix.com/GPX/1/1" version="1.1" creator="VitaBandet">
  <metadata>
    <name>Lapplandsleden (146 km)</name>
    <desc>Klimpfjäll to Hemavan on Lapplandsleden (planned 2027).</desc>
  </metadata>
  <wpt lat="65.05291" lon="14.76999">
    <name>Klimpfjäll</name>
  </wpt>
  <wpt lat="65.82923" lon="15.09828">
    <name>Hemavan</name>
  </wpt>
  <trk>
    <name>Lapplandsleden (146 km)</name>
    <trkseg>
      <trkpt lat="65.05068" lon="14.76423" />
      <trkpt lat="65.05174" lon="14.77815" />
      <trkpt lat="65.05584" lon="14.80002" />
      <trkpt lat="65.06202" lon="14.81223" />
      <trkpt lat="65.06069" lon="14.79603" />
      <trkpt lat="65.06727" lon="14.75639" />
      <trkpt lat="65.07107" lon="14.74939" />
      <trkpt lat="65.07479" lon="14.74463" />
      <trkpt lat="65.07871" lon="14.74261" />
      <trkpt lat="65.08354" lon="14.74389" />
      <trkpt lat="65.08514" lon="14.73524" />
      <trkpt lat="65.08889" lon="14.73217" />
      <trkpt lat="65.09398" lon="14.72771" />
      <trkpt lat="65.09789" lon="14.72492" />
      <trkpt lat="65.10314" lon="14.72680" />
      <trkpt lat="65.10688" lon="14.73019" />
      <trkpt lat="65.11118" lon="14.72440" />
      <trkpt lat="65.11558" lon="14.72332" />
      <trkpt lat="65.12134" lon="14.71741" />
      <trkpt lat="65.12503" lon="14.71364" />
      <trkpt lat="65.12774" lon="14.70468" />
      <trkpt lat="65.13085" lon="14.69594" />
      <trkpt lat="65.13544" lon="14.69129" />
      <trkpt lat="65.14034" lon="14.69096" />
      <trkpt lat="65.14483" lon="14.68691" />
      <trkpt lat="65.14751" lon="14.68066" />
      <trkpt lat="65.14976" lon="14.67349" />
      <trkpt lat="65.15212" lon="14.66534" />
      <trkpt lat="65.15434" lon="14.65534" />
      <trkpt lat="65.15592" lon="14.64858" />
      <trkpt lat="65.15783" lon="14.63863" />
      <trkpt lat="65.15866" lon="14.63009" />
      <trkpt lat="65.15967" lon="14.62243" />
      <trkpt lat="65.16143" lon="14.61479" />
      <trkpt lat="65.16261" lon="14.60639" />
      <trkpt lat="65.16501" lon="14.59940" />
      <trkpt lat="65.16652" lon="14.59093" />
      <trkpt lat="65.16910" lon="14.58450" />
      <trkpt lat="65.17346" lon="14.57877" />
      <trkpt lat="65.17691" lon="14.57265" />
      <trkpt lat="65.18095" lon="14.56912" />
      <trkpt lat="65.18476" lon="14.56650" />
      <trkpt lat="65.18820" lon="14.56680" />
      <trkpt lat="65.19045" lon="14.55857" />
      <trkpt lat="65.19392" lon="14.55246" />
      <trkpt lat="65.19731" lon="14.54828" />
      <trkpt lat="65.20347" lon="14.54710" />
      <trkpt lat="65.20659" lon="14.54575" />
      <trkpt lat="65.21112" lon="14.54246" />
      <trkpt lat="65.21527" lon="14.53910" />
      <trkpt lat="65.21936" lon="14.53694" />
      <trkpt lat="65.22361" lon="14.53824" />
      <trkpt lat="65.22695" lon="14.53538" />
      <trkpt lat="65.23008" lon="14.53019" />
      <trkpt lat="65.23308" lon="14.52320" />
      <trkpt lat="65.23648" lon="14.51682" />
      <trkpt lat="65.24012" lon="14.51254" />
      <trkpt lat="65.24413" lon="14.50794" />
      <trkpt lat="65.24773" lon="14.50457" />
      <trkpt lat="65.25155" lon="14.51205" />
      <trkpt lat="65.25133" lon="14.51983" />
      <trkpt lat="65.25267" lon="14.53152" />
      <trkpt lat="65.25464" lon="14.53923" />
      <trkpt lat="65.25711" lon="14.54579" />
      <trkpt lat="65.26044" lon="14.55475" />
      <trkpt lat="65.26478" lon="14.56039" />
      <trkpt lat="65.26865" lon="14.56562" />
      <trkpt lat="65.27164" lon="14.57142" />
      <trkpt lat="65.27483" lon="14.57451" />
      <trkpt lat="65.27907" lon="14.57975" />
      <trkpt lat="65.28429" lon="14.58539" />
      <trkpt lat="65.28840" lon="14.58758" />
      <trkpt lat="65.29334" lon="14.58910" />
      <trkpt lat="65.29911" lon="14.59730" />
      <trkpt lat="65.30344" lon="14.60115" />
      <trkpt lat="65.30557" lon="14.60740" />
      <trkpt lat="65.30516" lon="14.61939" />
      <trkpt lat="65.30491" lon="14.62947" />
      <trkpt lat="65.30874" lon="14.63575" />
      <trkpt lat="65.31115" lon="14.64309" />
      <trkpt lat="65.31155" lon="14.65433" />
      <trkpt lat="65.31101" lon="14.66770" />
      <trkpt lat="65.30908" lon="14.67645" />
      <trkpt lat="65.30581" lon="14.68573" />
      <trkpt lat="65.30434" lon="14.69515" />
      <trkpt lat="65.30608" lon="14.70264" />
      <trkpt lat="65.30840" lon="14.70997" />
      <trkpt lat="65.31117" lon="14.71663" />
      <trkpt lat="65.31291" lon="14.72613" />
      <trkpt lat="65.31569" lon="14.73008" />
      <trkpt lat="65.31851" lon="14.73793" />
      <trkpt lat="65.32136" lon="14.74429" />
      <trkpt lat="65.32180" lon="14.75529" />
      <trkpt lat="65.32343" lon="14.76223" />
      <trkpt lat="65.32555" lon="14.76785" />
      <trkpt lat="65.32842" lon="14.77498" />
      <trkpt lat="65.33288" lon="14.77833" />
      <trkpt lat="65.33837" lon="14.77800" />
      <trkpt lat="65.34201" lon="14.77915" />
      <trkpt lat="65.34831" lon="14.78042" />
      <trkpt lat="65.35276" lon="14.77894" />
      <trkpt lat="65.35814" lon="14.78024" />
      <trkpt lat="65.36320" lon="14.78150" />
      <trkpt lat="65.36734" lon="14.78108" />
      <trkpt lat="65.37068" lon="14.78622" />
      <trkpt lat="65.37764" lon="14.79071" />
      <trkpt lat="65.38104" lon="14.79291" />
      <trkpt lat="65.38915" lon="14.79309" />
      <trkpt lat="65.39332" lon="14.79495" />
      <trkpt lat="65.39830" lon="14.79813" />
      <trkpt lat="65.40201" lon="14.80053" />
      <trkpt lat="65.40528" lon="14.80675" />
      <trkpt lat="65.40877" lon="14.80862" />
      <trkpt lat="65.41271" lon="14.80946" />
      <trkpt lat="65.41617" lon="14.81523" />
      <trkpt lat="65.41880" lon="14.82364" />
      <trkpt lat="65.42083" lon="14.83176" />
      <trkpt lat="65.42273" lon="14.82336" />
      <trkpt lat="65.42236" lon="14.81414" />
      <trkpt lat="65.41949" lon="14.80064" />
      <trkpt lat="65.41801" lon="14.79060" />
      <trkpt lat="65.41803" lon="14.78141" />
      <trkpt lat="65.41885" lon="14.76285" />
      <trkpt lat="65.41679" lon="14.74763" />
      <trkpt lat="65.41629" lon="14.72354" />
      <trkpt lat="65.41729" lon="14.71561" />
      <trkpt lat="65.41812" lon="14.70684" />
      <trkpt lat="65.41667" lon="14.69527" />
      <trkpt lat="65.41845" lon="14.68257" />
      <trkpt lat="65.42142" lon="14.67352" />
      <trkpt lat="65.42267" lon="14.66603" />
      <trkpt lat="65.42586" lon="14.65273" />
      <trkpt lat="65.42730" lon="14.64338" />
      <trkpt lat="65.42994" lon="14.63788" />
      <trkpt lat="65.43344" lon="14.63427" />
      <trkpt lat="65.43637" lon="14.63078" />
      <trkpt lat="65.43561" lon="14.62250" />
      <trkpt lat="65.43633" lon="14.61469" />
      <trkpt lat="65.43928" lon="14.60928" />
      <trkpt lat="65.44197" lon="14.60126" />
      <trkpt lat="65.44398" lon="14.59040" />
      <trkpt lat="65.44567" lon="14.58211" />
      <trkpt lat="65.44686" lon="14.57390" />
      <trkpt lat="65.44934" lon="14.56449" />
      <trkpt lat="65.45122" lon="14.55701" />
      <trkpt lat="65.45270" lon="14.54904" />
      <trkpt lat="65.45447" lon="14.54088" />
      <trkpt lat="65.45592" lon="14.53112" />
      <trkpt lat="65.45666" lon="14.52140" />
      <trkpt lat="65.45761" lon="14.51192" />
      <trkpt lat="65.45964" lon="14.50505" />
      <trkpt lat="65.46307" lon="14.50226" />
      <trkpt lat="65.46673" lon="14.50059" />
      <trkpt lat="65.47256" lon="14.50079" />
      <trkpt lat="65.47612" lon="14.50152" />
      <trkpt lat="65.48016" lon="14.50456" />
      <trkpt lat="65.48400" lon="14.50997" />
      <trkpt lat="65.48718" lon="14.51470" />
      <trkpt lat="65.49122" lon="14.51859" />
      <trkpt lat="65.49766" lon="14.51606" />
      <trkpt lat="65.50154" lon="14.51678" />
      <trkpt lat="65.50607" lon="14.51759" />
      <trkpt lat="65.51198" lon="14.50712" />
      <trkpt lat="65.51507" lon="14.50030" />
      <trkpt lat="65.51844" lon="14.50492" />
      <trkpt lat="65.51925" lon="14.51415" />
      <trkpt lat="65.51805" lon="14.52516" />
      <trkpt lat="65.51763" lon="14.53380" />
      <trkpt lat="65.51731" lon="14.54518" />
      <trkpt lat="65.51680" lon="14.55282" />
      <trkpt lat="65.52139" lon="14.55494" />
      <trkpt lat="65.52398" lon="14.56466" />
      <trkpt lat="65.52721" lon="14.58000" />
      <trkpt lat="65.52964" lon="14.58511" />
      <trkpt lat="65.53507" lon="14.58457" />
      <trkpt lat="65.53904" lon="14.58351" />
      <trkpt lat="65.54396" lon="14.58281" />
      <trkpt lat="65.54855" lon="14.58123" />
      <trkpt lat="65.55304" lon="14.58042" />
      <trkpt lat="65.55836" lon="14.57676" />
      <trkpt lat="65.56295" lon="14.57962" />
      <trkpt lat="65.56666" lon="14.58356" />
      <trkpt lat="65.57103" lon="14.58723" />
      <trkpt lat="65.57473" lon="14.58922" />
      <trkpt lat="65.57994" lon="14.59611" />
      <trkpt lat="65.58476" lon="14.59657" />
      <trkpt lat="65.58808" lon="14.60397" />
      <trkpt lat="65.59703" lon="14.60220" />
      <trkpt lat="65.60066" lon="14.59987" />
      <trkpt lat="65.60500" lon="14.59798" />
      <trkpt lat="65.60876" lon="14.59581" />
      <trkpt lat="65.61296" lon="14.59742" />
      <trkpt lat="65.61731" lon="14.59736" />
      <trkpt lat="65.62208" lon="14.60214" />
      <trkpt lat="65.62618" lon="14.60372" />
      <trkpt lat="65.63037" lon="14.60711" />
      <trkpt lat="65.63485" lon="14.60820" />
      <trkpt lat="65.64059" lon="14.60886" />
      <trkpt lat="65.64637" lon="14.61021" />
      <trkpt lat="65.65112" lon="14.61072" />
      <trkpt lat="65.65514" lon="14.61109" />
      <trkpt lat="65.65847" lon="14.61018" />
      <trkpt lat="65.66251" lon="14.60732" />
      <trkpt lat="65.66614" lon="14.60761" />
      <trkpt lat="65.67053" lon="14.60450" />
      <trkpt lat="65.67464" lon="14.60320" />
      <trkpt lat="65.67688" lon="14.59632" />
      <trkpt lat="65.68003" lon="14.59320" />
      <trkpt lat="65.68336" lon="14.58943" />
      <trkpt lat="65.68892" lon="14.58999" />
      <trkpt lat="65.69330" lon="14.59020" />
      <trkpt lat="65.69653" lon="14.59356" />
      <trkpt lat="65.69956" lon="14.59732" />
      <trkpt lat="65.70342" lon="14.59960" />
      <trkpt lat="65.70801" lon="14.60258" />
      <trkpt lat="65.71136" lon="14.60895" />
      <trkpt lat="65.71711" lon="14.61284" />
      <trkpt lat="65.72094" lon="14.61205" />
      <trkpt lat="65.72540" lon="14.61209" />
      <trkpt lat="65.72854" lon="14.61350" />
      <trkpt lat="65.73072" lon="14.60331" />
      <trkpt lat="65.73256" lon="14.59601" />
      <trkpt lat="65.73637" lon="14.59805" />
      <trkpt lat="65.73947" lon="14.60243" />
      <trkpt lat="65.73830" lon="14.61407" />
      <trkpt lat="65.73779" lon="14.62307" />
      <trkpt lat="65.74113" lon="14.62739" />
      <trkpt lat="65.74462" lon="14.62573" />
      <trkpt lat="65.74923" lon="14.63220" />
      <trkpt lat="65.74948" lon="14.64035" />
      <trkpt lat="65.75181" lon="14.64892" />
      <trkpt lat="65.75220" lon="14.65699" />
      <trkpt lat="65.75174" lon="14.66554" />
      <trkpt lat="65.75294" lon="14.67500" />
      <trkpt lat="65.75442" lon="14.68524" />
      <trkpt lat="65.75891" lon="14.68683" />
      <trkpt lat="65.76174" lon="14.69437" />
      <trkpt lat="65.76533" lon="14.69670" />
      <trkpt lat="65.76789" lon="14.70349" />
      <trkpt lat="65.76833" lon="14.71270" />
      <trkpt lat="65.76985" lon="14.72479" />
      <trkpt lat="65.77101" lon="14.73514" />
      <trkpt lat="65.77166" lon="14.74574" />
      <trkpt lat="65.77174" lon="14.75515" />
      <trkpt lat="65.77468" lon="14.75992" />
      <trkpt lat="65.77570" lon="14.76938" />
      <trkpt lat="65.77476" lon="14.77821" />
      <trkpt lat="65.77397" lon="14.78701" />
      <trkpt lat="65.77487" lon="14.79527" />
      <trkpt lat="65.77922" lon="14.79857" />
      <trkpt lat="65.78127" lon="14.80721" />
      <trkpt lat="65.78203" lon="14.81692" />
      <trkpt lat="65.77993" lon="14.83006" />
      <trkpt lat="65.77785" lon="14.84107" />
      <trkpt lat="65.77773" lon="14.85149" />
      <trkpt lat="65.77825" lon="14.86082" />
      <trkpt lat="65.78019" lon="14.87018" />
      <trkpt lat="65.77959" lon="14.88093" />
      <trkpt lat="65.77739" lon="14.89162" />
      <trkpt lat="65.77857" lon="14.90128" />
      <trkpt lat="65.77630" lon="14.91344" />
      <trkpt lat="65.77375" lon="14.92221" />
      <trkpt lat="65.77191" lon="14.93283" />
      <trkpt lat="65.76965" lon="14.94259" />
      <trkpt lat="65.76883" lon="14.95035" />
      <trkpt lat="65.76871" lon="14.95964" />
      <trkpt lat="65.76809" lon="14.97074" />
      <trkpt lat="65.76770" lon="14.98195" />
      <trkpt lat="65.76933" lon="14.98955" />
      <trkpt lat="65.77196" lon="14.99522" />
      <trkpt lat="65.77291" lon="15.00617" />
      <trkpt lat="65.77177" lon="15.01490" />
      <trkpt lat="65.77143" lon="15.02383" />
      <trkpt lat="65.77598" lon="15.02728" />
      <trkpt lat="65.77937" lon="15.03057" />
      <trkpt lat="65.78184" lon="15.03620" />
      <trkpt lat="65.78554" lon="15.03602" />
      <trkpt lat="65.79031" lon="15.03694" />
      <trkpt lat="65.79356" lon="15.04142" />
      <trkpt lat="65.79663" lon="15.04528" />
      <trkpt lat="65.79566" lon="15.05409" />
      <trkpt lat="65.79563" lon="15.06330" />
      <trkpt lat="65.79863" lon="15.07094" />
      <trkpt lat="65.80251" lon="15.07034" />
      <trkpt lat="65.80598" lon="15.07193" />
      <trkpt lat="65.81032" lon="15.07160" />
      <trkpt lat="65.81417" lon="15.07701" />
      <trkpt lat="65.81728" lon="15.08673" />
      <trkpt lat="65.81484" lon="15.09847" />
      <trkpt lat="65.81464" lon="15.10703" />
      <trkpt lat="65.81460" lon="15.11512" />
      <trkpt lat="65.81742" lon="15.12019" />
      <trkpt lat="65.82293" lon="15.10778" />
      <trkpt lat="65.82791" lon="15.10405" />
      <trkpt lat="65.82923" lon="15.09828" />
    </trkseg>
  </trk>
</gpx>
