<?xml version='1.0' encoding='utf-8'?>
<gpx xmlns="http://www.topografix.com/GPX/1/1" version="1.1" creator="VitaBandet">
  <metadata>
    <name>Nordkalottleden (155 km)</name>
    <desc>Abisko to Treriksröset on Nordkalottleden through Norway (planned 2027).</desc>
  </metadata>
  <wpt lat="68.36123" lon="18.78535">
    <name>Abisko</name>
  </wpt>
  <wpt lat="69.06029" lon="20.54436">
    <name>Treriksröset</name>
  </wpt>
  <trk>
    <name>Nordkalottleden (155 km)</name>
    <trkseg>
      <trkpt lat="68.36041" lon="18.78343" />
      <trkpt lat="68.36712" lon="18.78071" />
      <trkpt lat="68.39079" lon="18.76203" />
      <trkpt lat="68.45355" lon="18.68565" />
      <trkpt lat="68.48746" lon="18.62600" />
      <trkpt lat="68.49327" lon="18.62432" />
      <trkpt lat="68.49639" lon="18.63296" />
      <trkpt lat="68.49987" lon="18.63188" />
      <trkpt lat="68.50420" lon="18.62941" />
      <trkpt lat="68.50736" lon="18.63399" />
      <trkpt lat="68.51059" lon="18.63146" />
      <trkpt lat="68.51391" lon="18.63172" />
      <trkpt lat="68.51737" lon="18.63629" />
      <trkpt lat="68.52110" lon="18.64028" />
      <trkpt lat="68.52467" lon="18.64425" />
      <trkpt lat="68.52576" lon="18.65590" />
      <trkpt lat="68.52586" lon="18.66487" />
      <trkpt lat="68.52636" lon="18.67433" />
      <trkpt lat="68.52575" lon="18.68430" />
      <trkpt lat="68.52595" lon="18.69382" />
      <trkpt lat="68.52696" lon="18.70324" />
      <trkpt lat="68.52738" lon="18.71282" />
      <trkpt lat="68.52826" lon="18.72177" />
      <trkpt lat="68.53019" lon="18.73007" />
      <trkpt lat="68.53004" lon="18.74030" />
      <trkpt lat="68.52967" lon="18.74913" />
      <trkpt lat="68.53202" lon="18.75649" />
      <trkpt lat="68.53519" lon="18.76179" />
      <trkpt lat="68.53863" lon="18.76285" />
      <trkpt lat="68.54177" lon="18.76436" />
      <trkpt lat="68.54419" lon="18.77025" />
      <trkpt lat="68.54657" lon="18.77672" />
      <trkpt lat="68.54967" lon="18.78038" />
      <trkpt lat="68.55308" lon="18.78276" />
      <trkpt lat="68.55635" lon="18.78691" />
      <trkpt lat="68.55829" lon="18.79461" />
      <trkpt lat="68.55948" lon="18.80347" />
      <trkpt lat="68.56166" lon="18.81136" />
      <trkpt lat="68.56449" lon="18.81764" />
      <trkpt lat="68.56716" lon="18.82439" />
      <trkpt lat="68.57153" lon="18.82903" />
      <trkpt lat="68.57524" lon="18.83016" />
      <trkpt lat="68.57757" lon="18.83705" />
      <trkpt lat="68.58005" lon="18.84492" />
      <trkpt lat="68.58242" lon="18.85233" />
      <trkpt lat="68.58520" lon="18.85914" />
      <trkpt lat="68.58809" lon="18.86510" />
      <trkpt lat="68.59095" lon="18.87162" />
      <trkpt lat="68.59419" lon="18.87619" />
      <trkpt lat="68.59755" lon="18.88086" />
      <trkpt lat="68.60115" lon="18.88195" />
      <trkpt lat="68.60478" lon="18.88406" />
      <trkpt lat="68.60840" lon="18.88607" />
      <trkpt lat="68.61209" lon="18.88616" />
      <trkpt lat="68.61581" lon="18.88603" />
      <trkpt lat="68.61908" lon="18.88601" />
      <trkpt lat="68.62283" lon="18.88694" />
      <trkpt lat="68.62592" lon="18.88138" />
      <trkpt lat="68.63027" lon="18.87721" />
      <trkpt lat="68.63366" lon="18.87320" />
      <trkpt lat="68.63723" lon="18.87022" />
      <trkpt lat="68.64051" lon="18.86650" />
      <trkpt lat="68.64421" lon="18.86445" />
      <trkpt lat="68.64732" lon="18.86935" />
      <trkpt lat="68.64958" lon="18.87864" />
      <trkpt lat="68.65197" lon="18.88602" />
      <trkpt lat="68.65661" lon="18.88586" />
      <trkpt lat="68.65967" lon="18.88313" />
      <trkpt lat="68.66258" lon="18.88768" />
      <trkpt lat="68.66709" lon="18.92406" />
      <trkpt lat="68.66794" lon="18.93410" />
      <trkpt lat="68.66566" lon="18.94181" />
      <trkpt lat="68.66495" lon="18.95117" />
      <trkpt lat="68.66668" lon="18.95986" />
      <trkpt lat="68.66784" lon="18.96996" />
      <trkpt lat="68.66805" lon="18.98014" />
      <trkpt lat="68.66674" lon="18.98915" />
      <trkpt lat="68.66487" lon="18.99966" />
      <trkpt lat="68.66396" lon="19.00951" />
      <trkpt lat="68.66288" lon="19.01925" />
      <trkpt lat="68.66199" lon="19.02887" />
      <trkpt lat="68.66213" lon="19.03886" />
      <trkpt lat="68.66150" lon="19.04838" />
      <trkpt lat="68.66019" lon="19.05783" />
      <trkpt lat="68.65873" lon="19.06700" />
      <trkpt lat="68.65751" lon="19.07623" />
      <trkpt lat="68.65709" lon="19.08534" />
      <trkpt lat="68.65825" lon="19.09822" />
      <trkpt lat="68.66052" lon="19.10596" />
      <trkpt lat="68.66111" lon="19.11525" />
      <trkpt lat="68.66039" lon="19.12395" />
      <trkpt lat="68.66413" lon="19.13241" />
      <trkpt lat="68.66670" lon="19.13906" />
      <trkpt lat="68.66996" lon="19.14260" />
      <trkpt lat="68.67356" lon="19.14371" />
      <trkpt lat="68.67638" lon="19.14912" />
      <trkpt lat="68.67918" lon="19.15511" />
      <trkpt lat="68.68218" lon="19.15932" />
      <trkpt lat="68.68257" lon="19.17240" />
      <trkpt lat="68.68345" lon="19.18193" />
      <trkpt lat="68.68418" lon="19.19169" />
      <trkpt lat="68.68417" lon="19.20176" />
      <trkpt lat="68.68401" lon="19.21162" />
      <trkpt lat="68.68367" lon="19.22046" />
      <trkpt lat="68.68275" lon="19.23003" />
      <trkpt lat="68.68169" lon="19.23981" />
      <trkpt lat="68.68106" lon="19.24941" />
      <trkpt lat="68.68030" lon="19.25896" />
      <trkpt lat="68.68031" lon="19.26883" />
      <trkpt lat="68.67912" lon="19.28235" />
      <trkpt lat="68.67799" lon="19.29273" />
      <trkpt lat="68.67682" lon="19.30279" />
      <trkpt lat="68.67650" lon="19.31250" />
      <trkpt lat="68.67601" lon="19.32305" />
      <trkpt lat="68.67513" lon="19.33316" />
      <trkpt lat="68.67471" lon="19.34369" />
      <trkpt lat="68.67373" lon="19.35256" />
      <trkpt lat="68.67177" lon="19.36136" />
      <trkpt lat="68.67030" lon="19.37070" />
      <trkpt lat="68.66974" lon="19.38044" />
      <trkpt lat="68.67000" lon="19.39076" />
      <trkpt lat="68.67039" lon="19.40584" />
      <trkpt lat="68.67041" lon="19.41662" />
      <trkpt lat="68.66989" lon="19.42706" />
      <trkpt lat="68.67135" lon="19.43644" />
      <trkpt lat="68.67184" lon="19.44723" />
      <trkpt lat="68.67169" lon="19.45768" />
      <trkpt lat="68.67236" lon="19.46769" />
      <trkpt lat="68.67220" lon="19.47823" />
      <trkpt lat="68.67211" lon="19.48705" />
      <trkpt lat="68.66860" lon="19.49587" />
      <trkpt lat="68.66620" lon="19.50379" />
      <trkpt lat="68.66373" lon="19.51130" />
      <trkpt lat="68.66122" lon="19.51861" />
      <trkpt lat="68.65921" lon="19.52726" />
      <trkpt lat="68.65731" lon="19.53616" />
      <trkpt lat="68.65475" lon="19.54337" />
      <trkpt lat="68.65211" lon="19.55035" />
      <trkpt lat="68.64909" lon="19.55622" />
      <trkpt lat="68.64558" lon="19.55950" />
      <trkpt lat="68.64253" lon="19.56521" />
      <trkpt lat="68.63913" lon="19.56680" />
      <trkpt lat="68.63637" lon="19.57295" />
      <trkpt lat="68.63646" lon="19.58271" />
      <trkpt lat="68.63787" lon="19.59226" />
      <trkpt lat="68.63948" lon="19.60070" />
      <trkpt lat="68.64171" lon="19.60937" />
      <trkpt lat="68.64419" lon="19.61511" />
      <trkpt lat="68.64662" lon="19.62273" />
      <trkpt lat="68.64883" lon="19.63112" />
      <trkpt lat="68.65242" lon="19.63620" />
      <trkpt lat="68.65599" lon="19.63699" />
      <trkpt lat="68.65883" lon="19.64168" />
      <trkpt lat="68.66002" lon="19.64980" />
      <trkpt lat="68.66175" lon="19.65821" />
      <trkpt lat="68.66420" lon="19.66472" />
      <trkpt lat="68.66653" lon="19.67055" />
      <trkpt lat="68.66907" lon="19.67822" />
      <trkpt lat="68.67092" lon="19.68588" />
      <trkpt lat="68.67276" lon="19.69425" />
      <trkpt lat="68.67401" lon="19.70380" />
      <trkpt lat="68.67592" lon="19.71462" />
      <trkpt lat="68.67668" lon="19.72373" />
      <trkpt lat="68.67640" lon="19.73481" />
      <trkpt lat="68.67723" lon="19.74443" />
      <trkpt lat="68.67960" lon="19.75145" />
      <trkpt lat="68.68179" lon="19.76038" />
      <trkpt lat="68.68534" lon="19.76628" />
      <trkpt lat="68.68629" lon="19.77649" />
      <trkpt lat="68.68234" lon="19.77989" />
      <trkpt lat="68.67766" lon="19.78187" />
      <trkpt lat="68.67486" lon="19.78959" />
      <trkpt lat="68.67522" lon="19.80159" />
      <trkpt lat="68.67626" lon="19.81450" />
      <trkpt lat="68.67451" lon="19.82476" />
      <trkpt lat="68.67204" lon="19.83038" />
      <trkpt lat="68.66916" lon="19.83607" />
      <trkpt lat="68.66616" lon="19.84179" />
      <trkpt lat="68.66359" lon="19.84739" />
      <trkpt lat="68.66268" lon="19.85586" />
      <trkpt lat="68.66115" lon="19.86469" />
      <trkpt lat="68.66210" lon="19.87469" />
      <trkpt lat="68.66114" lon="19.88710" />
      <trkpt lat="68.66150" lon="19.89667" />
      <trkpt lat="68.66263" lon="19.90604" />
      <trkpt lat="68.66512" lon="19.91284" />
      <trkpt lat="68.66555" lon="19.92232" />
      <trkpt lat="68.66595" lon="19.93241" />
      <trkpt lat="68.66656" lon="19.94243" />
      <trkpt lat="68.66729" lon="19.95244" />
      <trkpt lat="68.66821" lon="19.96218" />
      <trkpt lat="68.66921" lon="19.97180" />
      <trkpt lat="68.66995" lon="19.98171" />
      <trkpt lat="68.67126" lon="19.99117" />
      <trkpt lat="68.67283" lon="20.00020" />
      <trkpt lat="68.67444" lon="20.00917" />
      <trkpt lat="68.67521" lon="20.02025" />
      <trkpt lat="68.67529" lon="20.03061" />
      <trkpt lat="68.67622" lon="20.04068" />
      <trkpt lat="68.67866" lon="20.04629" />
      <trkpt lat="68.68208" lon="20.05082" />
      <trkpt lat="68.68575" lon="20.05266" />
      <trkpt lat="68.68952" lon="20.05381" />
      <trkpt lat="68.69328" lon="20.05180" />
      <trkpt lat="68.69692" lon="20.04986" />
      <trkpt lat="68.70075" lon="20.05101" />
      <trkpt lat="68.70437" lon="20.05243" />
      <trkpt lat="68.70811" lon="20.05280" />
      <trkpt lat="68.71192" lon="20.05515" />
      <trkpt lat="68.71541" lon="20.05637" />
      <trkpt lat="68.71880" lon="20.05613" />
      <trkpt lat="68.72221" lon="20.05256" />
      <trkpt lat="68.72570" lon="20.04860" />
      <trkpt lat="68.72909" lon="20.04452" />
      <trkpt lat="68.73245" lon="20.04042" />
      <trkpt lat="68.73580" lon="20.03584" />
      <trkpt lat="68.73881" lon="20.03008" />
      <trkpt lat="68.74239" lon="20.02661" />
      <trkpt lat="68.74603" lon="20.02264" />
      <trkpt lat="68.74962" lon="20.01868" />
      <trkpt lat="68.75282" lon="20.01380" />
      <trkpt lat="68.75621" lon="20.01028" />
      <trkpt lat="68.75971" lon="20.00964" />
      <trkpt lat="68.76318" lon="20.01773" />
      <trkpt lat="68.76585" lon="20.02315" />
      <trkpt lat="68.76919" lon="20.02726" />
      <trkpt lat="68.77261" lon="20.03064" />
      <trkpt lat="68.77591" lon="20.03649" />
      <trkpt lat="68.77959" lon="20.03930" />
      <trkpt lat="68.78250" lon="20.04343" />
      <trkpt lat="68.78580" lon="20.04859" />
      <trkpt lat="68.78928" lon="20.05071" />
      <trkpt lat="68.79260" lon="20.05641" />
      <trkpt lat="68.79639" lon="20.05862" />
      <trkpt lat="68.79971" lon="20.06268" />
      <trkpt lat="68.80295" lon="20.06768" />
      <trkpt lat="68.80579" lon="20.07397" />
      <trkpt lat="68.80901" lon="20.07989" />
      <trkpt lat="68.81170" lon="20.08686" />
      <trkpt lat="68.81422" lon="20.09449" />
      <trkpt lat="68.81663" lon="20.10206" />
      <trkpt lat="68.81907" lon="20.10908" />
      <trkpt lat="68.82318" lon="20.11164" />
      <trkpt lat="68.82674" lon="20.11230" />
      <trkpt lat="68.83046" lon="20.11123" />
      <trkpt lat="68.83401" lon="20.11118" />
      <trkpt lat="68.83836" lon="20.11501" />
      <trkpt lat="68.84154" lon="20.11942" />
      <trkpt lat="68.84479" lon="20.12317" />
      <trkpt lat="68.84865" lon="20.12820" />
      <trkpt lat="68.85217" lon="20.12812" />
      <trkpt lat="68.85564" lon="20.12995" />
      <trkpt lat="68.85902" lon="20.13038" />
      <trkpt lat="68.86215" lon="20.12461" />
      <trkpt lat="68.86457" lon="20.11788" />
      <trkpt lat="68.86742" lon="20.11129" />
      <trkpt lat="68.87133" lon="20.10391" />
      <trkpt lat="68.87346" lon="20.09519" />
      <trkpt lat="68.87567" lon="20.08725" />
      <trkpt lat="68.87843" lon="20.07999" />
      <trkpt lat="68.88154" lon="20.07478" />
      <trkpt lat="68.88469" lon="20.06771" />
      <trkpt lat="68.88745" lon="20.05924" />
      <trkpt lat="68.88906" lon="20.05088" />
      <trkpt lat="68.89242" lon="20.04605" />
      <trkpt lat="68.89561" lon="20.04569" />
      <trkpt lat="68.89894" lon="20.05111" />
      <trkpt lat="68.90121" lon="20.06036" />
      <trkpt lat="68.90148" lon="20.07120" />
      <trkpt lat="68.90322" lon="20.08264" />
      <trkpt lat="68.90511" lon="20.09957" />
      <trkpt lat="68.90598" lon="20.11351" />
      <trkpt lat="68.90604" lon="20.12532" />
      <trkpt lat="68.90660" lon="20.13635" />
      <trkpt lat="68.90853" lon="20.15148" />
      <trkpt lat="68.91433" lon="20.16624" />
      <trkpt lat="68.91400" lon="20.17704" />
      <trkpt lat="68.91242" lon="20.18854" />
      <trkpt lat="68.91140" lon="20.20009" />
      <trkpt lat="68.91296" lon="20.21386" />
      <trkpt lat="68.91468" lon="20.22418" />
      <trkpt lat="68.91660" lon="20.23426" />
      <trkpt lat="68.91996" lon="20.24113" />
      <trkpt lat="68.92408" lon="20.24480" />
      <trkpt lat="68.92789" lon="20.25372" />
      <trkpt lat="68.93024" lon="20.25998" />
      <trkpt lat="68.93783" lon="20.27754" />
      <trkpt lat="68.93554" lon="20.26972" />
      <trkpt lat="68.93988" lon="20.28192" />
      <trkpt lat="68.94218" lon="20.28895" />
      <trkpt lat="68.94541" lon="20.29868" />
      <trkpt lat="68.94876" lon="20.30861" />
      <trkpt lat="68.95362" lon="20.31763" />
      <trkpt lat="68.95648" lon="20.32484" />
      <trkpt lat="68.95896" lon="20.33433" />
      <trkpt lat="68.96271" lon="20.34210" />
      <trkpt lat="68.96705" lon="20.34607" />
      <trkpt lat="68.97095" lon="20.35161" />
      <trkpt lat="68.97423" lon="20.36227" />
      <trkpt lat="68.97710" lon="20.37545" />
      <trkpt lat="68.97898" lon="20.38281" />
      <trkpt lat="68.98143" lon="20.39488" />
      <trkpt lat="68.98225" lon="20.41067" />
      <trkpt lat="68.98300" lon="20.42501" />
      <trkpt lat="68.98492" lon="20.43309" />
      <trkpt lat="68.98682" lon="20.44160" />
      <trkpt lat="68.99056" lon="20.44957" />
      <trkpt lat="68.99419" lon="20.45692" />
      <trkpt lat="68.99730" lon="20.46409" />
      <trkpt lat="68.99974" lon="20.46992" />
      <trkpt lat="69.00357" lon="20.47691" />
      <trkpt lat="69.00826" lon="20.48233" />
      <trkpt lat="69.01217" lon="20.48676" />
      <trkpt lat="69.01676" lon="20.49449" />
      <trkpt lat="69.02159" lon="20.50079" />
      <trkpt lat="69.02468" lon="20.50975" />
      <trkpt lat="69.02978" lon="20.51720" />
      <trkpt lat="69.03376" lon="20.51796" />
      <trkpt lat="69.03957" lon="20.51796" />
      <trkpt lat="69.04482" lon="20.51934" />
      <trkpt lat="69.04839" lon="20.52153" />
      <trkpt lat="69.05319" lon="20.52690" />
      <trkpt lat="69.05786" lon="20.53475" />
      <trkpt lat="69.06029" lon="20.54436" />
    </trkseg>
  </trk>
</gpx>
