<?xml version='1.0' encoding='utf-8'?>
<gpx xmlns="http://www.topografix.com/GPX/1/1" version="1.1" creator="VitaBandet">
  <metadata>
    <name>Swedish side (149 km)</name>
    <desc>Abisko to Treriksröset on the usual Swedish finish (Noah Bovin).</desc>
  </metadata>
  <wpt lat="68.36176" lon="18.81749">
    <name>Abisko</name>
  </wpt>
  <wpt lat="69.05778" lon="20.54091">
    <name>Treriksröset</name>
  </wpt>
  <trk>
    <name>Swedish side (149 km)</name>
    <trkseg>
      <trkpt lat="68.36176" lon="18.81749" />
      <trkpt lat="68.36288" lon="18.83912" />
      <trkpt lat="68.36403" lon="18.85569" />
      <trkpt lat="68.36539" lon="18.87629" />
      <trkpt lat="68.36758" lon="18.89279" />
      <trkpt lat="68.36980" lon="18.91285" />
      <trkpt lat="68.37062" lon="18.92727" />
      <trkpt lat="68.37053" lon="18.94579" />
      <trkpt lat="68.37073" lon="18.96678" />
      <trkpt lat="68.37087" lon="18.98695" />
      <trkpt lat="68.37069" lon="19.01521" />
      <trkpt lat="68.37029" lon="19.03606" />
      <trkpt lat="68.37021" lon="19.05701" />
      <trkpt lat="68.37002" lon="19.07831" />
      <trkpt lat="68.36899" lon="19.08915" />
      <trkpt lat="68.36709" lon="19.10305" />
      <trkpt lat="68.36431" lon="19.12125" />
      <trkpt lat="68.36121" lon="19.14103" />
      <trkpt lat="68.35801" lon="19.16103" />
      <trkpt lat="68.35563" lon="19.17631" />
      <trkpt lat="68.35279" lon="19.19601" />
      <trkpt lat="68.34970" lon="19.21515" />
      <trkpt lat="68.34592" lon="19.24015" />
      <trkpt lat="68.34346" lon="19.25993" />
      <trkpt lat="68.34081" lon="19.27965" />
      <trkpt lat="68.33845" lon="19.29684" />
      <trkpt lat="68.33593" lon="19.31364" />
      <trkpt lat="68.33393" lon="19.32669" />
      <trkpt lat="68.33116" lon="19.34585" />
      <trkpt lat="68.32841" lon="19.36417" />
      <trkpt lat="68.32569" lon="19.38293" />
      <trkpt lat="68.32340" lon="19.39788" />
      <trkpt lat="68.32197" lon="19.40569" />
      <trkpt lat="68.31928" lon="19.42039" />
      <trkpt lat="68.31654" lon="19.43887" />
      <trkpt lat="68.31412" lon="19.45631" />
      <trkpt lat="68.31265" lon="19.46695" />
      <trkpt lat="68.31000" lon="19.48554" />
      <trkpt lat="68.30783" lon="19.49983" />
      <trkpt lat="68.30560" lon="19.51626" />
      <trkpt lat="68.30341" lon="19.53397" />
      <trkpt lat="68.30144" lon="19.55150" />
      <trkpt lat="68.30089" lon="19.56459" />
      <trkpt lat="68.30076" lon="19.58396" />
      <trkpt lat="68.30095" lon="19.60463" />
      <trkpt lat="68.30120" lon="19.61804" />
      <trkpt lat="68.30170" lon="19.63872" />
      <trkpt lat="68.30214" lon="19.65477" />
      <trkpt lat="68.30260" lon="19.67142" />
      <trkpt lat="68.30289" lon="19.68368" />
      <trkpt lat="68.30335" lon="19.70327" />
      <trkpt lat="68.30414" lon="19.72333" />
      <trkpt lat="68.30497" lon="19.74116" />
      <trkpt lat="68.30645" lon="19.75985" />
      <trkpt lat="68.30942" lon="19.77839" />
      <trkpt lat="68.31332" lon="19.79521" />
      <trkpt lat="68.31422" lon="19.81457" />
      <trkpt lat="68.31463" lon="19.83622" />
      <trkpt lat="68.31039" lon="19.84939" />
      <trkpt lat="68.30468" lon="19.85478" />
      <trkpt lat="68.29905" lon="19.86491" />
      <trkpt lat="68.29544" lon="19.87587" />
      <trkpt lat="68.29253" lon="19.88542" />
      <trkpt lat="68.29438" lon="19.89385" />
      <trkpt lat="68.29771" lon="19.90576" />
      <trkpt lat="68.30292" lon="19.92098" />
      <trkpt lat="68.30661" lon="19.93357" />
      <trkpt lat="68.31102" lon="19.93572" />
      <trkpt lat="68.31776" lon="19.93782" />
      <trkpt lat="68.32223" lon="19.94632" />
      <trkpt lat="68.32560" lon="19.95057" />
      <trkpt lat="68.32942" lon="19.95224" />
      <trkpt lat="68.33330" lon="19.95786" />
      <trkpt lat="68.34079" lon="19.96301" />
      <trkpt lat="68.34416" lon="19.96578" />
      <trkpt lat="68.34885" lon="19.97370" />
      <trkpt lat="68.35322" lon="19.98782" />
      <trkpt lat="68.35625" lon="20.00301" />
      <trkpt lat="68.35928" lon="20.01462" />
      <trkpt lat="68.36118" lon="20.02346" />
      <trkpt lat="68.36513" lon="20.03181" />
      <trkpt lat="68.36808" lon="20.04363" />
      <trkpt lat="68.37260" lon="20.06150" />
      <trkpt lat="68.37399" lon="20.07382" />
      <trkpt lat="68.37948" lon="20.07762" />
      <trkpt lat="68.38504" lon="20.07238" />
      <trkpt lat="68.38988" lon="20.06680" />
      <trkpt lat="68.39368" lon="20.06219" />
      <trkpt lat="68.39692" lon="20.06266" />
      <trkpt lat="68.40110" lon="20.06815" />
      <trkpt lat="68.40602" lon="20.07300" />
      <trkpt lat="68.41032" lon="20.07869" />
      <trkpt lat="68.41425" lon="20.08406" />
      <trkpt lat="68.41695" lon="20.09386" />
      <trkpt lat="68.41982" lon="20.10845" />
      <trkpt lat="68.42130" lon="20.12534" />
      <trkpt lat="68.42231" lon="20.13924" />
      <trkpt lat="68.42497" lon="20.15311" />
      <trkpt lat="68.43323" lon="20.17124" />
      <trkpt lat="68.43923" lon="20.18752" />
      <trkpt lat="68.44267" lon="20.19246" />
      <trkpt lat="68.44787" lon="20.19733" />
      <trkpt lat="68.45552" lon="20.20645" />
      <trkpt lat="68.46321" lon="20.21563" />
      <trkpt lat="68.47184" lon="20.22574" />
      <trkpt lat="68.47851" lon="20.23243" />
      <trkpt lat="68.48397" lon="20.24585" />
      <trkpt lat="68.48908" lon="20.25863" />
      <trkpt lat="68.49472" lon="20.27795" />
      <trkpt lat="68.50049" lon="20.28625" />
      <trkpt lat="68.50755" lon="20.29350" />
      <trkpt lat="68.51406" lon="20.29331" />
      <trkpt lat="68.52141" lon="20.29423" />
      <trkpt lat="68.52559" lon="20.29378" />
      <trkpt lat="68.53231" lon="20.29295" />
      <trkpt lat="68.53932" lon="20.29260" />
      <trkpt lat="68.54675" lon="20.29874" />
      <trkpt lat="68.55113" lon="20.31468" />
      <trkpt lat="68.55735" lon="20.32359" />
      <trkpt lat="68.55978" lon="20.33052" />
      <trkpt lat="68.56389" lon="20.33964" />
      <trkpt lat="68.56948" lon="20.35461" />
      <trkpt lat="68.57375" lon="20.35983" />
      <trkpt lat="68.57823" lon="20.37545" />
      <trkpt lat="68.58216" lon="20.39051" />
      <trkpt lat="68.58788" lon="20.40167" />
      <trkpt lat="68.59192" lon="20.40856" />
      <trkpt lat="68.59675" lon="20.41819" />
      <trkpt lat="68.60179" lon="20.41706" />
      <trkpt lat="68.60598" lon="20.41242" />
      <trkpt lat="68.61072" lon="20.41435" />
      <trkpt lat="68.61357" lon="20.41888" />
      <trkpt lat="68.62041" lon="20.42173" />
      <trkpt lat="68.62827" lon="20.42937" />
      <trkpt lat="68.63598" lon="20.43356" />
      <trkpt lat="68.64419" lon="20.43620" />
      <trkpt lat="68.65192" lon="20.44553" />
      <trkpt lat="68.65881" lon="20.45418" />
      <trkpt lat="68.66182" lon="20.45780" />
      <trkpt lat="68.67139" lon="20.46858" />
      <trkpt lat="68.68066" lon="20.47840" />
      <trkpt lat="68.68761" lon="20.49001" />
      <trkpt lat="68.69620" lon="20.50070" />
      <trkpt lat="68.70365" lon="20.51289" />
      <trkpt lat="68.71032" lon="20.51694" />
      <trkpt lat="68.71877" lon="20.51211" />
      <trkpt lat="68.72618" lon="20.51128" />
      <trkpt lat="68.73450" lon="20.50926" />
      <trkpt lat="68.74176" lon="20.50804" />
      <trkpt lat="68.75027" lon="20.50945" />
      <trkpt lat="68.75703" lon="20.50917" />
      <trkpt lat="68.76342" lon="20.50881" />
      <trkpt lat="68.76750" lon="20.51211" />
      <trkpt lat="68.77337" lon="20.51231" />
      <trkpt lat="68.77798" lon="20.51078" />
      <trkpt lat="68.78469" lon="20.50930" />
      <trkpt lat="68.78960" lon="20.51008" />
      <trkpt lat="68.79534" lon="20.51053" />
      <trkpt lat="68.80165" lon="20.50411" />
      <trkpt lat="68.80735" lon="20.49993" />
      <trkpt lat="68.81294" lon="20.49795" />
      <trkpt lat="68.81981" lon="20.49555" />
      <trkpt lat="68.82631" lon="20.49364" />
      <trkpt lat="68.83327" lon="20.49647" />
      <trkpt lat="68.84159" lon="20.50295" />
      <trkpt lat="68.85035" lon="20.50499" />
      <trkpt lat="68.85821" lon="20.50467" />
      <trkpt lat="68.86451" lon="20.50823" />
      <trkpt lat="68.87310" lon="20.49926" />
      <trkpt lat="68.88009" lon="20.48982" />
      <trkpt lat="68.88770" lon="20.46999" />
      <trkpt lat="68.89356" lon="20.45926" />
      <trkpt lat="68.89912" lon="20.44487" />
      <trkpt lat="68.90286" lon="20.43053" />
      <trkpt lat="68.90857" lon="20.41834" />
      <trkpt lat="68.91421" lon="20.40665" />
      <trkpt lat="68.92055" lon="20.39410" />
      <trkpt lat="68.92804" lon="20.38253" />
      <trkpt lat="68.93486" lon="20.37742" />
      <trkpt lat="68.94172" lon="20.37116" />
      <trkpt lat="68.94556" lon="20.36358" />
      <trkpt lat="68.95064" lon="20.35788" />
      <trkpt lat="68.95998" lon="20.35974" />
      <trkpt lat="68.96706" lon="20.35374" />
      <trkpt lat="68.97244" lon="20.35858" />
      <trkpt lat="68.97437" lon="20.36878" />
      <trkpt lat="68.98046" lon="20.36976" />
      <trkpt lat="68.98067" lon="20.38888" />
      <trkpt lat="68.98114" lon="20.39777" />
      <trkpt lat="68.98178" lon="20.41122" />
      <trkpt lat="68.98368" lon="20.42607" />
      <trkpt lat="68.98891" lon="20.44186" />
      <trkpt lat="68.99233" lon="20.44871" />
      <trkpt lat="68.99599" lon="20.46426" />
      <trkpt lat="69.00167" lon="20.47145" />
      <trkpt lat="69.00658" lon="20.48383" />
      <trkpt lat="69.01202" lon="20.49158" />
      <trkpt lat="69.01786" lon="20.49890" />
      <trkpt lat="69.02361" lon="20.51138" />
      <trkpt lat="69.02765" lon="20.51924" />
      <trkpt lat="69.04352" lon="20.51422" />
      <trkpt lat="69.04982" lon="20.52505" />
      <trkpt lat="69.05431" lon="20.52804" />
      <trkpt lat="69.05778" lon="20.54091" />
    </trkseg>
  </trk>
</gpx>
